Hotel Name,city,postcode,housenumber,street,state,address2,longitude,latitude
JW Marriot Miami,Miami,33131,1109,Brickell Avenue,Florida,"1109 Brickell Avenue, Miami, FL 33131, United States of America",-80.19133949050796,25.76246575
JW Marriott Miami,Miami,33131,111,Southeast 14th Street,Florida,"111 Southeast 14th Street, Miami, FL 33131, United States of America",-80.19097568051285,25.760531049999997
Hyatt Centric Brickell Miami,Miami,33131,1102,Brickell Bay Drive,Florida,"1102 Brickell Bay Drive, Miami, FL 33131, United States of America",-80.1906291,25.7610141
SLS Brickell Miami,Miami,33131,1300,South Miami Avenue,Florida,"1300 South Miami Avenue, Miami, FL 33131, United States of America",-80.19382157101691,25.76114105
Hyatt Centric Brickell Miami,Miami,33131,1101,Brickell Avenue,Florida,"1101 Brickell Avenue, Miami, FL 33131, United States of America",-80.1904641,25.7629207
Hampton Inn & Suites by Hilton - Miami/Brickell-Downtown,Miami,33130,30,Southwest 12th Street,Florida,"30 Southwest 12th Street, Miami, FL 33130, United States of America",-80.19422036449114,25.76224085
Fortune House Hotel,Miami,33131,,Southeast 14th Terrace,Florida,"Southeast 14th Terrace, Miami, FL 33131, United States of America",-80.19102708808593,25.75947155
Four Seasons Hotel Miami,Miami,33131,,Southeast 14th Terrace,Florida,"Southeast 14th Terrace, Miami, FL 33131, United States of America",-80.19210483365822,25.7589607
,Miami,33131,,Baywalk,Florida,"Miami, FL 33131, United States of America",-80.18916899562564,25.7602388
SLS LUX Brickell,Miami,33130,805,South Miami Avenue,Florida,"805 South Miami Avenue, Miami, FL 33130, United States of America",-80.19293893173952,25.76616215
Novotel Miami Brickell,Miami,33129,1500,Southwest 1st Avenue,Florida,"1500 Southwest 1st Avenue, Miami, FL 33129, United States of America",-80.19706203271704,25.75987225
"Hotel Indigo Miami Brickell, an IHG Hotel",Miami,33130,145,Southwest 11th Street,Florida,"145 Southwest 11th Street, Miami, FL 33130, United States of America",-80.19699715119587,25.76369815
"EAST, Miami",Miami,33131,,Southeast 8th Street,Florida,"Southeast 8th Street, Miami, FL 33131, United States of America",-80.19276519919433,25.7666584
Aloft Miami Brickell,Miami,33130,1001,Southwest 2nd Avenue,Florida,"1001 Southwest 2nd Avenue, Miami, FL 33130, United States of America",-80.19709774824753,25.76401865
AC Miami Hotel Downtown & Element Miami Downtown,Miami,33130,115,Southwest 8th Street,Florida,"115 Southwest 8th Street, Miami, FL 33130, United States of America",-80.19599622164708,25.7668316
Extended Stay America Hotel Miami - Brickell - Port of Miami,Miami,33129,,Southwest 15th Road,Florida,"Southwest 15th Road, Miami, FL 33129, United States of America",-80.19883118216667,25.76107355
Mandarin Oriental,Miami,33131,500,Brickell Key Drive,Florida,"500 Brickell Key Drive, Miami, FL 33131, United States of America",-80.18545235327949,25.76511345
Homewood Suites by Hilton Miami Downtown/Brickell,Miami,33129,,Southwest 1st Avenue,Florida,"Southwest 1st Avenue, Miami, FL 33129, United States of America",-80.19876485653117,25.7584643
W Miami,Miami,33131,485,Brickell Avenue,Florida,"485 Brickell Avenue, Miami, FL 33131, United States of America",-80.18958065673056,25.76874475
Hyatt Regency Miami,Miami,33131,400,Riverwalk,Florida,"400 Riverwalk, Miami, FL 33131, United States of America",-80.19052001270089,25.77068445
River Park Hotel & Suites Downtown/Convention Center,Miami,33131,,Riverwalk,Florida,"Riverwalk, Miami, FL 33131, United States of America",-80.19178537597554,25.7710071
Kimpton EPIC Hotel,Miami,33131,270,Biscayne Boulevard,Florida,"270 Biscayne Boulevard, Miami, FL 33131, United States of America",-80.18913,25.7706352
JW Marriott Marquis Miami,Miami,33131,,Southeast 3rd Avenue,Florida,"Southeast 3rd Avenue, Miami, FL 33131, United States of America",-80.18917395951813,25.7713057
Courtyard by Marriott Miami Downtown/Brickell Area,Miami,33131,200,Southeast 2nd Avenue,Florida,"200 Southeast 2nd Avenue, Miami, FL 33131, United States of America",-80.19062610419275,25.772338949999998
The Langford,Miami,33131,,Southeast 1st Street,Florida,"Southeast 1st Street, Miami, FL 33131, United States of America",-80.19140536491179,25.773695099999998
InterContinental Miami,Miami,33131,,Chopin Plaza,Florida,"Chopin Plaza, Miami, FL 33131, United States of America",-80.18546872000324,25.772449
ex Zubieta,Miami,33129,,Brickell Avenue,Florida,"Brickell Avenue, Miami, FL 33129, United States of America",-80.2011495,25.7520052
Selina Miami River,Miami,33130,437,Southwest 2nd Street,Florida,"437 Southwest 2nd Street, Miami, FL 33130, United States of America",-80.2017562,25.7721194
Leamington Hotel,Miami,33132,,Northeast 1st Street,Florida,"Northeast 1st Street, Miami, FL 33132, United States of America",-80.18840320000001,25.775483299999998
YVE Hotel Miami,Miami,33132,,Northeast 2nd Street,Florida,"Northeast 2nd Street, Miami, FL 33132, United States of America",-80.18824486617854,25.77607055
YOTELPAD Miami,Miami,33132,227,Northeast 2nd Street,Florida,"227 Northeast 2nd Street, Miami, FL 33132, United States of America",-80.1896463,25.7764014
Hilton Garden Inn Miami Brickell South,Miami,33129,2500,Brickell Avenue,Florida,"2500 Brickell Avenue, Miami, FL 33129, United States of America",-80.20380681596845,25.7511895
YOTEL Miami,Miami,33132,227,Northeast 2nd Street,Florida,"227 Northeast 2nd Street, Miami, FL 33132, United States of America",-80.1897375,25.7764295
Residences at Bayside - by Elite City Stays,Miami,33132,,Northeast 3rd Street,Florida,"Northeast 3rd Street, Miami, FL 33132, United States of America",-80.1886936,25.776957
Yotel Miami,Miami,33132,237;243;227,Northeast 3rd Street,Florida,"237;243;227 Northeast 3rd Street, Miami, FL 33132, United States of America",-80.1897088,25.777435
Holiday Inn Port of Miami Downtown,Miami,33132,,Northeast 4th Street,Florida,"Northeast 4th Street, Miami, FL 33132, United States of America",-80.18878611197962,25.77785965
FANNYLU,Miami,33136,560,Northwest 7th Street,Florida,"560 Northwest 7th Street, Miami, FL 33136, United States of America",-80.2044306,25.7802204
Dunns-Josephine Hotel,Miami,33136,1028,Northwest 3rd Avenue,Florida,"1028 Northwest 3rd Avenue, Miami, FL 33136, United States of America",-80.1999749,25.78419
"The Gabriel Miami Downtown, Curio Collection by Hilton",Miami,33132,1100,Biscayne Boulevard,Florida,"1100 Biscayne Boulevard, Miami, FL 33132, United States of America",-80.1899305,25.785214
Casa Trinidad at #1,Miami,33129,,Southwest 14th Avenue,Florida,"Southwest 14th Avenue, Miami, FL 33129, United States of America",-80.2185834,25.7646813
Barlington Hotel,Miami,33128,,Northwest 2nd Street,Florida,"Northwest 2nd Street, Miami, FL 33128, United States of America",-80.21728912216608,25.7750355
Hilton Miami Downtown,Miami,33132,1601,Biscayne Boulevard,Florida,"1601 Biscayne Boulevard, Miami, FL 33132, United States of America",-80.18825049538935,25.791070599999998
Miami Marriott Biscayne Bay,Miami,33132,1633,North Bayshore Drive,Florida,"1633 North Bayshore Drive, Miami, FL 33132, United States of America",-80.18599749065513,25.7908605
SpringHill Suites,Miami,33136,,Dolphin Expressway,Florida,"Dolphin Expressway, Miami, FL 33136, United States of America",-80.21032687105833,25.787171999999998
Doubletree by Hilton Grand Hotel Biscayne Bay,Miami,33132,,North Bayshore Drive,Florida,"North Bayshore Drive, Miami, FL 33132, United States of America",-80.1862353396111,25.7915759
SpringHill Suites by Marriott Miami Downtown/Medical Center,Miami,33136,,Dolphin Expressway,Florida,"Dolphin Expressway, Miami, FL 33136, United States of America",-80.21026938301029,25.78694965
Opera Suites & Marina,Miami,33132,,North Bayshore Drive,Florida,"North Bayshore Drive, Miami, FL 33132, United States of America",-80.18711713468934,25.7924146
,Miami,33132,144,Northeast 20th Street,Florida,"Miami, FL 33132, United States of America",-80.1920242,25.7960142
Claude Pepper Tower,Miami,33136,750,Northwest 18th Street,Florida,"750 Northwest 18th Street, Miami, FL 33136, United States of America",-80.2082289,25.7926922
,Miami,33136,,Northwest 18th Terrace,Florida,"Miami, FL 33136, United States of America",-80.2082367,25.7928318
Claude Pepper,Miami,33136,750,Northwest 18th Terrace,Florida,"750 Northwest 18th Terrace, Miami, FL 33136, United States of America",-80.2081551,25.7929167
Claude Pepper,Miami,33136,750,Northwest 18th Terrace,Florida,"750 Northwest 18th Terrace, Miami, FL 33136, United States of America",-80.2082598,25.792971
Claude Pepper,Miami,33136,750,Northwest 18th Terrace,Florida,"750 Northwest 18th Terrace, Miami, FL 33136, United States of America",-80.2088942,25.79293
家庭旅馆,Miami,33145,2345,Southwest 17th Street,Florida,"2345 Southwest 17th Street, Miami, FL 33145, United States of America",-80.2332972,25.7566184
San Juan Motel,Miami,33135,2390,Southwest 8th Street,Florida,"2390 Southwest 8th Street, Miami, FL 33135, United States of America",-80.23450781592695,25.765063750000003
Provident Luxury Suites Fisher Island,,33109,,Fisher Island Drive,Florida,"Fisher Island Drive, Miami-Dade County, FL 33109, United States of America",-80.14697531913794,25.7615585
Hyde Midtown Miami,Miami,33137,3401,Northeast 1st Avenue,Florida,"3401 Northeast 1st Avenue, Miami, FL 33137, United States of America",-80.19186556715147,25.80881755
AC Hotel by Marriott Miami Midtown,Miami,33137,,Northeast 34th Street,Florida,"Northeast 34th Street, Miami, FL 33137, United States of America",-80.18988829613559,25.808844399999998
Hampton Inn & Suites Miami Midtown,Miami,33137,,Northeast 35th Street,Florida,"Northeast 35th Street, Miami, FL 33137, United States of America",-80.19010944789773,25.809138400000002
Fisher Island Club,Miami Beach,33109,1,Fisher Island Drive,Florida,"1 Fisher Island Drive, Miami Beach, FL 33109, United States of America",-80.13887384847223,25.76341325
Wishes Biscayne Motel,Miami,33137,3530,Biscayne Boulevard,Florida,"3530 Biscayne Boulevard, Miami, FL 33137, United States of America",-80.18985771226828,25.80992415
Mondrian South Beach Hotel,Miami Beach,33139,1100,West Avenue,Florida,"1100 West Avenue, Miami Beach, FL 33139, United States of America",-80.14262880679192,25.7819228
Hampton,Miami,33133,2800,Southwest 28th Terrace,Florida,"2800 Southwest 28th Terrace, Miami, FL 33133, United States of America",-80.23929138969649,25.738528350000003
Julia Motel,Miami,33135,3040,West Flagler Street,Florida,"3040 West Flagler Street, Miami, FL 33135, United States of America",-80.2445479,25.7718511
"The Standard Spa, Miami Beach",Miami Beach,33139,40,Farrey Lane,Florida,"40 Farrey Lane, Miami Beach, FL 33139, United States of America",-80.14954565207384,25.79217905
Miami Hostel,Miami Beach,33139,810,Alton Road,Florida,"810 Alton Road, Miami Beach, FL 33139, United States of America",-80.1412259,25.778529
Miami Hostel,Miami Beach,33139,,Alton Road,Florida,"Alton Road, Miami Beach, FL 33139, United States of America",-80.1409328,25.7784802
casa tote,Miami,33137,,Northeast 7th Avenue,Florida,"Northeast 7th Avenue, Miami, FL 33137, United States of America",-80.1855465,25.8107604
,Miami,33127,,Northwest 36th Street,Florida,"Miami, FL 33127, United States of America",-80.2040771,25.8098428
Hardy Hotel Miami,Miami Beach,33139,,2nd Street,Florida,"2nd Street, Miami Beach, FL 33139, United States of America",-80.13787067516719,25.77088415
,Miami Beach,33139,,Lenox Avenue,Florida,"Miami Beach, FL 33139, United States of America",-80.1397178,25.7773648
Abae Hotel,Miami Beach,33139,1215,West Avenue,Florida,"1215 West Avenue, Miami Beach, FL 33139, United States of America",-80.14185809878379,25.7829578
Bikini Hostel,Miami Beach,33139,1247,West Avenue,Florida,"1247 West Avenue, Miami Beach, FL 33139, United States of America",-80.14187327423447,25.7835849
Courtyard by Marriott Miami Coconut Grove,Miami,33133,,Darwin Street,Florida,"Darwin Street, Miami, FL 33133, United States of America",-80.23600449100624,25.7314693
The Dexter,Miami Beach,33139,,Jefferson Avenue,Florida,"Jefferson Avenue, Miami Beach, FL 33139, United States of America",-80.1373269,25.77289245
Delfino Suites South Beach,Miami Beach,33139,1321,15th Street,Florida,"1321 15th Street, Miami Beach, FL 33139, United States of America",-80.14288215023637,25.78761785
Hugo,Miami Beach,33139,13,15th Street,Florida,"13 15th Street, Miami Beach, FL 33139, United States of America",-80.1427214,25.7874056
Urbanica The Meridian Hotel,Miami Beach,33139,426;418,Meridian Avenue,Florida,"426;418 Meridian Avenue, Miami Beach, FL 33139, United States of America",-80.13617971845687,25.774099399999997
Mare Azur Design District Luxury Apartments,Miami,33137,3880,Northeast 6th Avenue,Florida,"3880 Northeast 6th Avenue, Miami, FL 33137, United States of America",-80.18686550094996,25.8131245
,Miami Beach,33139,,2nd Street,Florida,"Miami Beach, FL 33139, United States of America",-80.1357974,25.77128205
,Miami Beach,33139,735,2nd Street,Florida,"Miami Beach, FL 33139, United States of America",-80.13568674922567,25.7712862
Villazzo,Miami Beach,33109,,Collins Court,Florida,"Collins Court, Miami Beach, FL 33109, United States of America",-80.13501617323512,25.76905815
,Miami Beach,33139,,2nd Street,Florida,"Miami Beach, FL 33139, United States of America",-80.13558032458792,25.77128285
"The Ritz-Carlton Coconut Grove, Miami",Miami,33133,,Cornelia Drive,Florida,"Cornelia Drive, Miami, FL 33133, United States of America",-80.2382117989562,25.730309249999998
,Miami Beach,33139,,2nd Street,Florida,"Miami Beach, FL 33139, United States of America",-80.13547085,25.77129145
Crates at the Gaythering,Miami Beach,33139,1409,Lincoln Road,Florida,"1409 Lincoln Road, Miami Beach, FL 33139, United States of America",-80.14393502462919,25.790607700000002
Residence Inn by Marriott Miami Coconut Grove 3,Miami,33133,2835,Tigertail Avenue,Florida,"2835 Tigertail Avenue, Miami, FL 33133, United States of America",-80.23844069412748,25.731137
The Brooklyn South Beach,Miami Beach,33139,,Euclid Avenue,Florida,"Euclid Avenue, Miami Beach, FL 33139, United States of America",-80.13519860053879,25.7728152
The Fountain Condo Vacation Rentals,Miami Beach,33139,,Euclid Avenue,Florida,"Euclid Avenue, Miami Beach, FL 33139, United States of America",-80.1352433075881,25.773088700000002
Orange - Hotel Suites,Miami Beach,33139,350,Euclid Avenue,Florida,"350 Euclid Avenue, Miami Beach, FL 33139, United States of America",-80.13521398659373,25.7733724
Residence Inn by Marriott Miami Coconut Grove,Miami,33133,2855,Tigertail Avenue,Florida,"2855 Tigertail Avenue, Miami, FL 33133, United States of America",-80.23882601856364,25.73088355
The Mercury Hotel,Miami Beach,33139,100,Collins Avenue,Florida,"100 Collins Avenue, Miami Beach, FL 33139, United States of America",-80.13435288330024,25.7700556
Orilla Bar and Grill,Miami Beach,33139,426,Euclid Avenue,Florida,"426 Euclid Avenue, Miami Beach, FL 33139, United States of America",-80.13522502683892,25.77418935
SoBe You Bed And Breakfast,Miami Beach,33139,1018,Jefferson Avenue,Florida,"1018 Jefferson Avenue, Miami Beach, FL 33139, United States of America",-80.13761242664457,25.7810161
Sunflower Villa,Miami Beach,33139,927,Jefferson Avenue,Florida,"927 Jefferson Avenue, Miami Beach, FL 33139, United States of America",-80.1370739,25.7799239
Residence Inn by Marriott Miami Coconut Grove 2,Miami,33133,,Tigertail Avenue,Florida,"Tigertail Avenue, Miami, FL 33133, United States of America",-80.23906895452852,25.7305877
SoBe Hostel,Miami Beach,33139,235,Washington Avenue,Florida,"235 Washington Avenue, Miami Beach, FL 33139, United States of America",-80.13439735670256,25.771824799999997
Villa Italia South Beach Miami,Miami Beach,33139,354,Washington Avenue,Florida,"354 Washington Avenue, Miami Beach, FL 33139, United States of America",-80.13473156444385,25.7735354
Hotel Saint Augustine,Miami Beach,33109,,Collins Court,Florida,"Collins Court, Miami Beach, FL 33109, United States of America",-80.13411087975581,25.773170299999997
Fashion Boutique Hotel,Miami Beach,33139,534,Washington Avenue,Florida,"534 Washington Avenue, Miami Beach, FL 33139, United States of America",-80.13450169173103,25.77532905
Sapphire South Beach Hotel,Miami Beach,33139,1524,Lenox Avenue,Florida,"1524 Lenox Avenue, Miami Beach, FL 33139, United States of America",-80.14024978056342,25.78794865
Hotel Casa Coloretta,Miami Beach,33109,,Collins Court,Florida,"Collins Court, Miami Beach, FL 33109, United States of America",-80.13407305000001,25.77331405
Prime Hotel,Miami Beach,33139,100,Ocean Drive,Florida,"100 Ocean Drive, Miami Beach, FL 33139, United States of America",-80.13328664266135,25.76976405
Blanc Kara,Miami Beach,33139,205,Collins Avenue,Florida,"205 Collins Avenue, Miami Beach, FL 33139, United States of America",-80.1334479,25.7711002
Browns Hotel,Miami Beach,33139,112,Ocean Drive,Florida,"112 Ocean Drive, Miami Beach, FL 33139, United States of America",-80.13325090036633,25.769918750000002
Harrison Hotel,Miami Beach,33139,411,Washington Avenue,Florida,"411 Washington Avenue, Miami Beach, FL 33139, United States of America",-80.13386559113896,25.773745650000002
The Julia - Boutique Miami Beach Hotel,Miami Beach,33139,336,Collins Avenue,Florida,"336 Collins Avenue, Miami Beach, FL 33139, United States of America",-80.13368391892172,25.7729575
The Century Hotel,Miami Beach,33139,140,Ocean Drive,Florida,"140 Ocean Drive, Miami Beach, FL 33139, United States of America",-80.13313794720911,25.770448299999998
Ramona Motel,Miami,33135,3301,West Flagler Street,Florida,"3301 West Flagler Street, Miami, FL 33135, United States of America",-80.25002269509581,25.7722187
Hilton Bentley Miami/South Beach,Miami Beach,33139,101,Ocean Drive,Florida,"101 Ocean Drive, Miami Beach, FL 33139, United States of America",-80.13236679861163,25.76968295
Kimpton Angler's Hotel,Miami Beach,33139,,Washington Avenue,Florida,"Washington Avenue, Miami Beach, FL 33139, United States of America",-80.13421192304526,25.7765254
Ocean Place,Miami Beach,33139,226,Ocean Drive,Florida,"226 Ocean Drive, Miami Beach, FL 33139, United States of America",-80.13289503111827,25.77155775
"Life House, South of Fifth",Miami Beach,33139,321,Collins Avenue,Florida,"321 Collins Avenue, Miami Beach, FL 33139, United States of America",-80.13310997682191,25.772576450000003
Residence Inn by Marriott Miami Beach South Beach,Miami Beach,33139,1231,17th Street,Florida,"1231 17th Street, Miami Beach, FL 33139, United States of America",-80.142206859821,25.7923919
Marriott Stanton South Beach,Miami Beach,33139,161,Ocean Drive,Florida,"161 Ocean Drive, Miami Beach, FL 33139, United States of America",-80.13230014043,25.77044145
The Goodtime Hotel,Miami Beach,33139,,Washington Avenue,Florida,"Washington Avenue, Miami Beach, FL 33139, United States of America",-80.13341661836844,25.77633265
,Miami Beach,33109,,South of Fifth Boardwalk,Florida,"Miami Beach, FL 33109, United States of America",-80.1318221,25.76618005
Harrison Hotel,Miami Beach,33139,401,Collins Avenue,Florida,"401 Collins Avenue, Miami Beach, FL 33139, United States of America",-80.1328925,25.77358985
,Miami Beach,33109,,South of Fifth Boardwalk,Florida,"Miami Beach, FL 33109, United States of America",-80.13183555,25.76648535
The Balfour Hotel Miami Beach,Miami Beach,33139,350,Ocean Drive,Florida,"350 Ocean Drive, Miami Beach, FL 33139, United States of America",-80.13255541274012,25.7731545
Kimpton Hotel Palomar South Beach,Miami Beach,33139,1750,Alton Road,Florida,"1750 Alton Road, Miami Beach, FL 33139, United States of America",-80.14168095118654,25.792683750000002
Royal Hotel South Beach,Miami Beach,33139,,Washington Avenue,Florida,"Washington Avenue, Miami Beach, FL 33139, United States of America",-80.13371382435909,25.7776474
Local House Hotel,Miami Beach,33139,400,Ocean Drive,Florida,"400 Ocean Drive, Miami Beach, FL 33139, United States of America",-80.13248316289759,25.7734481
Mayfair House Hotel & Garden,Miami,33133,3000,Florida Avenue,Florida,"3000 Florida Avenue, Miami, FL 33133, United States of America",-80.24080517322727,25.728682300000003
Ocean Five Hotel,Miami Beach,33139,436,Ocean Drive,Florida,"436 Ocean Drive, Miami Beach, FL 33139, United States of America",-80.13236971262354,25.7739866
Ithaca of South Beach Hotel,Miami Beach,33139,601,6th Street,Florida,"601 6th Street, Miami Beach, FL 33139, United States of America",-80.13245090588416,25.7756431
Bentley South Beach,Miami Beach,33139,,Ocean Drive,Florida,"Ocean Drive, Miami Beach, FL 33139, United States of America",-80.13210286536119,25.7749366
The Mutiny Hotel,Miami,33133,2951,South Bayshore Drive,Florida,"2951 South Bayshore Drive, Miami, FL 33133, United States of America",-80.23994488583119,25.7272444
The Savoy Hotel,Miami Beach,33139,,Ocean Drive,Florida,"Ocean Drive, Miami Beach, FL 33139, United States of America",-80.1316937,25.77372405
Metropole South Beach,Miami Beach,33139,635,Collins Avenue,Florida,"635 Collins Avenue, Miami Beach, FL 33139, United States of America",-80.13224742108645,25.776125450000002
The Fritz Hotel,Miami Beach,33139,524,Ocean Drive,Florida,"524 Ocean Drive, Miami Beach, FL 33139, United States of America",-80.13210937675115,25.77520235
The Barbizon,Miami Beach,33139,530,Ocean Drive,Florida,"530 Ocean Drive, Miami Beach, FL 33139, United States of America",-80.13204975309594,25.77545485
Beach Park Hotel,Miami Beach,33139,600,Ocean Drive,Florida,"600 Ocean Drive, Miami Beach, FL 33139, United States of America",-80.13192324100315,25.7757515
Clinton Hotel South Beach,Miami Beach,33139,825,Washington Avenue,Florida,"825 Washington Avenue, Miami Beach, FL 33139, United States of America",-80.13287469593132,25.77879035
"Hotel Arya, BW Premier Collection",Miami,33133,2889,McFarlane Road,Florida,"2889 McFarlane Road, Miami, FL 33133, United States of America",-80.24063347634609,25.7270867
Hotel Chelsea,Miami Beach,33139,944,Washington Avenue,Florida,"944 Washington Avenue, Miami Beach, FL 33139, United States of America",-80.13331921432109,25.78029865
Hotel Astor,Miami Beach,33139,956,Washington Avenue,Florida,"956 Washington Avenue, Miami Beach, FL 33139, United States of America",-80.13327355639788,25.780558399999997
Park Central Hotel,Miami Beach,33139,640,Ocean Drive,Florida,"640 Ocean Drive, Miami Beach, FL 33139, United States of America",-80.13183255289705,25.77637185
Whitelaw Hotel,Miami Beach,33139,808,Collins Avenue,Florida,"808 Collins Avenue, Miami Beach, FL 33139, United States of America",-80.13248565187915,25.77845695
"The Gabriel Miami South Beach, Curio Collection by Hilton",Miami Beach,33139,640,Ocean Drive,Florida,"640 Ocean Drive, Miami Beach, FL 33139, United States of America",-80.13180335,25.7765191
Posh South Beach Hostel,Miami Beach,33139,820,Collins Avenue,Florida,"820 Collins Avenue, Miami Beach, FL 33139, United States of America",-80.13244494511022,25.77860745
Majestic Hotel,Miami Beach,33139,660,Ocean Drive,Florida,"660 Ocean Drive, Miami Beach, FL 33139, United States of America",-80.13176817809622,25.7766597
Avalon Hotel,Miami Beach,33139,700,Ocean Drive,Florida,"700 Ocean Drive, Miami Beach, FL 33139, United States of America",-80.1317034885106,25.77696095
Moxy Miami South Beach,Miami Beach,33139,915,Washington Avenue,Florida,"915 Washington Avenue, Miami Beach, FL 33139, United States of America",-80.13274128902498,25.77980495
Miami Beach International Travellers Hostel,Miami Beach,33139,,9th Street,Florida,"9th Street, Miami Beach, FL 33139, United States of America",-80.132741,25.7793745
Hotel Shelley,Miami Beach,33139,844,Collins Avenue,Florida,"844 Collins Avenue, Miami Beach, FL 33139, United States of America",-80.1323559,25.779009199999997
Beacon Hotel,Miami Beach,33139,720,Ocean Drive,Florida,"720 Ocean Drive, Miami Beach, FL 33139, United States of America",-80.13165755,25.7771597
Jurny suites Miami Beach,Miami Beach,33139,852,Collins Avenue,Florida,"852 Collins Avenue, Miami Beach, FL 33139, United States of America",-80.1323472866767,25.77912585
Jetset Franklin,Miami Beach,33139,,Collins Court,Florida,"Collins Court, Miami Beach, FL 33139, United States of America",-80.1323084,25.77927875
The Tony Hotel South Beach,Miami Beach,33139,801,Collins Avenue,Florida,"801 Collins Avenue, Miami Beach, FL 33139, United States of America",-80.13186861138689,25.778328799999997
Washington Park Hotel,Miami Beach,33139,1050,Washington Avenue,Florida,"1050 Washington Avenue, Miami Beach, FL 33139, United States of America",-80.1332103439024,25.781806600000003
The Colony Hotel,Miami Beach,33139,736,Ocean Drive,Florida,"736 Ocean Drive, Miami Beach, FL 33139, United States of America",-80.13159310931559,25.777469699999997
Sunbrite Apartments,Miami Beach,33139,1330,Pennsylvania Avenue,Florida,"1330 Pennsylvania Avenue, Miami Beach, FL 33139, United States of America",-80.13460544535025,25.784738949999998
Boulevard Hotel,Miami Beach,33139,740,Ocean Drive,Florida,"740 Ocean Drive, Miami Beach, FL 33139, United States of America",-80.13156169228279,25.77760085
Starlite Hotel,Miami Beach,33139,750,Ocean Drive,Florida,"750 Ocean Drive, Miami Beach, FL 33139, United States of America",-80.13153379814327,25.7777345
Mr. C Miami - Coconut Grove,Miami,33133,2988,McFarlane Road,Florida,"2988 McFarlane Road, Miami, FL 33133, United States of America",-80.24220418136287,25.7273055
Princess Ann Hotel,Miami Beach,33139,920,Collins Avenue,Florida,"920 Collins Avenue, Miami Beach, FL 33139, United States of America",-80.1321721,25.77981805
Loft Hostel,Miami Beach,33139,,Collins Avenue,Florida,"Collins Avenue, Miami Beach, FL 33139, United States of America",-80.1319952,25.7790567
South Beach Hotels Group,Miami Beach,33139,855,Collins Avenue,Florida,"855 Collins Avenue, Miami Beach, FL 33139, United States of America",-80.1317176082882,25.779023350000003
Blue Moon Hotel,Miami Beach,33139,944,Collins Avenue,Florida,"944 Collins Avenue, Miami Beach, FL 33139, United States of America",-80.13202447092561,25.78015955
,Miami Beach,33139,,Ocean Court,Florida,"Miami Beach, FL 33139, United States of America",-80.13138340829451,25.778408499999998
The Loft Hotel,Miami Beach,33139,952,Collins Avenue,Florida,"952 Collins Avenue, Miami Beach, FL 33139, United States of America",-80.1320490478794,25.780360549999997
Pelican Hotel,Miami Beach,33139,826,Ocean Drive,Florida,"826 Ocean Drive, Miami Beach, FL 33139, United States of America",-80.13135615226636,25.77854675
Viscay Hotel,Miami Beach,33139,960,Collins Avenue,Florida,"960 Collins Avenue, Miami Beach, FL 33139, United States of America",-80.13202975988176,25.780502
Sherbrooke All Suites Hotel,Miami Beach,33139,901,Collins Avenue,Florida,"901 Collins Avenue, Miami Beach, FL 33139, United States of America",-80.13162725785992,25.7794349
Casa Grande Suite Hotel,Miami Beach,33139,834,Ocean Drive,Florida,"834 Ocean Drive, Miami Beach, FL 33139, United States of America",-80.1313136214395,25.778733799999998
Fairwind Hotel Miami,Miami Beach,33139,1000,Collins Avenue,Florida,"1000 Collins Avenue, Miami Beach, FL 33139, United States of America",-80.13198019827325,25.780758749999997
apt 202,Miami Beach,33139,1300,Pennsylvania Avenue,Florida,"1300 Pennsylvania Avenue, Miami Beach, FL 33139, United States of America",-80.1341122,25.7852733
Room Mate Waldorf Towers Hotel,Miami Beach,33139,860,Ocean Drive,Florida,"860 Ocean Drive, Miami Beach, FL 33139, United States of America",-80.13124044340148,25.7790898
Deco Walk,Miami Beach,33139,928,Ocean Drive,Florida,"928 Ocean Drive, Miami Beach, FL 33139, United States of America",-80.13109495,25.779759300000002
Essex House Hotel,Miami Beach,33139,1001,Collins Avenue,Florida,"1001 Collins Avenue, Miami Beach, FL 33139, United States of America",-80.13134166528354,25.7807593
Hotel Breakwater South Beach,Miami Beach,33139,940,Ocean Drive,Florida,"940 Ocean Drive, Miami Beach, FL 33139, United States of America",-80.13104388764124,25.779999699999998
Hyatt Regency Coral Gables,,33134,50,Alhambra Plaza,Florida,"50 Alhambra Plaza, Coral Gables, FL 33134, United States of America",-80.25549953676449,25.7518791
Parqueadero Miami Beach,Miami Beach,33139,,Ocean Court,Florida,"Ocean Court, Miami Beach, FL 33139, United States of America",-80.13124569565555,25.78118895
The Stiles Hotel,Miami Beach,33139,1120,Collins Avenue,Florida,"1120 Collins Avenue, Miami Beach, FL 33139, United States of America",-80.13157148147774,25.7822021
Ocean Blue Hostel,Miami Beach,33139,,Ocean Drive,Florida,"Ocean Drive, Miami Beach, FL 33139, United States of America",-80.1309328,25.7796047
Cils Home,Miami,33145,,Southwest 23rd Street,Florida,"Southwest 23rd Street, Miami, FL 33145, United States of America",-80.254058,25.7482753
Clevelander South Beach Hotel and Bar,Miami Beach,33139,,Ocean Court,Florida,"Ocean Court, Miami Beach, FL 33139, United States of America",-80.13104468098152,25.78065315
Ocean Reef Suites,Miami Beach,33139,,Collins Court,Florida,"Collins Court, Miami Beach, FL 33139, United States of America",-80.13161565,25.78237705
Wynwood South Beach Hotel,Miami Beach,33139,,Collins Avenue,Florida,"Collins Avenue, Miami Beach, FL 33139, United States of America",-80.131193,25.781464
Hotel Ocean,Miami Beach,33139,1130,Collins Avenue,Florida,"1130 Collins Avenue, Miami Beach, FL 33139, United States of America",-80.13159035000001,25.782521449999997
Miami Beach International Hostel,Miami Beach,33139,,Collins Avenue,Florida,"Collins Avenue, Miami Beach, FL 33139, United States of America",-80.1311904,25.781462
Congress Hotel South Beach,Miami Beach,33139,1036,Ocean Drive,Florida,"1036 Ocean Drive, Miami Beach, FL 33139, United States of America",-80.1308008,25.781110650000002
The Marlin,Miami Beach,33139,1200,Collins Avenue,Florida,"1200 Collins Avenue, Miami Beach, FL 33139, United States of America",-80.13149295,25.783009999999997
Congress Hotel by Miavac,Miami Beach,33139,,Ocean Court,Florida,"Ocean Court, Miami Beach, FL 33139, United States of America",-80.13077195940593,25.7812488
Casa Boutique Hotel,Miami Beach,33139,1334,Washington Avenue,Florida,"1334 Washington Avenue, Miami Beach, FL 33139, United States of America",-80.13235814938264,25.784866100000002
Azure Luxury Suites,Miami Beach,33139,,Collins Court,Florida,"Collins Court, Miami Beach, FL 33139, United States of America",-80.1314721,25.78315405
Dream South Beach,Miami Beach,33139,,Ocean Court,Florida,"Ocean Court, Miami Beach, FL 33139, United States of America",-80.13103616216846,25.78215995
OceanDriveVR Suites,Miami Beach,33139,,Ocean Court,Florida,"Ocean Court, Miami Beach, FL 33139, United States of America",-80.1307388510526,25.7813896
The Kent Hotel,Miami Beach,33139,1131,Collins Avenue,Florida,"1131 Collins Avenue, Miami Beach, FL 33139, United States of America",-80.13098308550741,25.7823885
Casa Victoria Orchid Hotel,Miami Beach,33139,507,Española Way,Florida,"507 Española Way, Miami Beach, FL 33139, United States of America",-80.13315945787181,25.7870985
Impala Hotel,Miami Beach,33139,1228,Collins Avenue,Florida,"1228 Collins Avenue, Miami Beach, FL 33139, United States of America",-80.1314258455084,25.783416600000002
La Flora Hotel,Miami Beach,33139,,Collins Court,Florida,"Collins Court, Miami Beach, FL 33139, United States of America",-80.13140506632041,25.78355965
The Villa Casa Casuarina,Miami Beach,33139,,Ocean Court,Florida,"Ocean Court, Miami Beach, FL 33139, United States of America",-80.13062999700776,25.78201505
Commodore Inn the Grove,Miami,33133,3162,Commodore Plaza,Florida,"3162 Commodore Plaza, Miami, FL 33133, United States of America",-80.24483975603817,25.72726685
Hotel Victor,Miami Beach,33139,1144,Ocean Drive,Florida,"1144 Ocean Drive, Miami Beach, FL 33139, United States of America",-80.13068355961714,25.78230265
1818 Meridian House,Miami Beach,33139,1816,Meridian Avenue,Florida,"1816 Meridian Avenue, Miami Beach, FL 33139, United States of America",-80.13714072209775,25.7941335
Suites On South Beach,Miami Beach,33139,,Collins Court,Florida,"Collins Court, Miami Beach, FL 33139, United States of America",-80.13123636235954,25.7846526
The Shepley,Miami Beach,33139,1340,Collins Avenue,Florida,"1340 Collins Avenue, Miami Beach, FL 33139, United States of America",-80.13119549999999,25.78492155
Esmé Miami Beach,Miami Beach,33139,,Española Way,Florida,"Española Way, Miami Beach, FL 33139, United States of America",-80.13210638110652,25.786823300000002
Hotel Ocean South Beach,Miami Beach,33139,1230,Ocean Drive,Florida,"1230 Ocean Drive, Miami Beach, FL 33139, United States of America",-80.1303695798124,25.7832841
,Miami Beach,33139,,Ocean Court,Florida,"Miami Beach, FL 33139, United States of America",-80.130397,25.7830955
Orchid House,Miami Beach,33139,1350,Collins Avenue,Florida,"1350 Collins Avenue, Miami Beach, FL 33139, United States of America",-80.1310960580212,25.78504865
El Paseo Hotel,Miami Beach,33139,405,Española Way,Florida,"405 Española Way, Miami Beach, FL 33139, United States of America",-80.13195814550875,25.7871306
Leslie Hotel,Miami Beach,33139,1244,Ocean Drive,Florida,"1244 Ocean Drive, Miami Beach, FL 33139, United States of America",-80.13031445146328,25.7835653
The Carlyle,Miami Beach,33139,1250,Ocean Drive,Florida,"1250 Ocean Drive, Miami Beach, FL 33139, United States of America",-80.1302746573967,25.78380105
Sra. Betty,,33142,,Northwest 26th Street,Florida,"Northwest 26th Street, Miami-Dade County, FL 33142, United States of America",-80.2426232,25.7998127
Courtyard by Marriott Miami Beach South Beach,Miami Beach,33139,,Washington Avenue,Florida,"Washington Avenue, Miami Beach, FL 33139, United States of America",-80.13217519537473,25.78815335
The Clifton South Beach Hotel,Miami Beach,33139,1343,Collins Avenue,Florida,"1343 Collins Avenue, Miami Beach, FL 33139, United States of America",-80.13059505,25.7848356
Nassau Suite Hotel,Miami Beach,33139,1414,Collins Avenue,Florida,"1414 Collins Avenue, Miami Beach, FL 33139, United States of America",-80.13105411241966,25.78587585
Cardozo Hotel South Beach,Miami Beach,33139,1300,Ocean Drive,Florida,"1300 Ocean Drive, Miami Beach, FL 33139, United States of America",-80.13012014523383,25.7841289
"Hotel Colonnade Coral Gables, Autograph Collection",,33134,180,Aragon Avenue,Florida,"180 Aragon Avenue, Coral Gables, FL 33134, United States of America",-80.25821430120101,25.75014505
Rock Hostel,Miami Beach,33139,1351,Collins Avenue,Florida,"1351 Collins Avenue, Miami Beach, FL 33139, United States of America",-80.1307046,25.7850123
Cavalier Hotel,Miami Beach,33139,1320,Ocean Drive,Florida,"1320 Ocean Drive, Miami Beach, FL 33139, United States of America",-80.13019385,25.78437205
The Odyssey of South Beach Hotel,Miami Beach,33139,1420,Collins Avenue,Florida,"1420 Collins Avenue, Miami Beach, FL 33139, United States of America",-80.13100684805752,25.7861451
Riviere South Beach Hotel,Miami Beach,33139,,Collins Court,Florida,"Collins Court, Miami Beach, FL 33139, United States of America",-80.13098375415913,25.786285499999998
South Beach Plaza Hotel,Miami Beach,33139,1401,Collins Avenue,Florida,"1401 Collins Avenue, Miami Beach, FL 33139, United States of America",-80.13049600247487,25.785413650000002
Island House,Miami Beach,33139,1428,Collins Avenue,Florida,"1428 Collins Avenue, Miami Beach, FL 33139, United States of America",-80.13096555,25.78641415
odyssey,Miami Beach,33139,1420,Collins Avenue,Florida,"1420 Collins Avenue, Miami Beach, FL 33139, United States of America",-80.1308307,25.7861329
Villa Paradiso Apartment Hotel,Miami Beach,33139,,Ocean Court,Florida,"Ocean Court, Miami Beach, FL 33139, United States of America",-80.13044176265339,25.7858178
The President Hotel South Beach,Miami Beach,33139,1423,Collins Avenue,Florida,"1423 Collins Avenue, Miami Beach, FL 33139, United States of America",-80.13040194189757,25.7859862
"Winter Haven, Autograph Collection",Miami Beach,33139,1400,Ocean Drive,Florida,"1400 Ocean Drive, Miami Beach, FL 33139, United States of America",-80.13004609666504,25.78531955
President Villa Miami Beach,Miami Beach,33139,,Ocean Court,Florida,"Ocean Court, Miami Beach, FL 33139, United States of America",-80.13048863896255,25.78618315
Ponce De Leon Hotel,,33134,1721,Ponce de Leon Boulevard,Florida,"1721 Ponce de Leon Boulevard, Coral Gables, FL 33134, United States of America",-80.25857282005975,25.756211649999997
"Marriott Vacation Club Pulse, South Beach",Miami Beach,33139,1410,Ocean Drive,Florida,"1410 Ocean Drive, Miami Beach, FL 33139, United States of America",-80.13000713961782,25.7855107
Crowne Plaza South Beach - Z Ocean Hotel,Miami Beach,33139,,Ocean Court,Florida,"Ocean Court, Miami Beach, FL 33139, United States of America",-80.13020878734424,25.786532299999998
Penguin Hotel,Miami Beach,33139,1420,Ocean Drive,Florida,"1420 Ocean Drive, Miami Beach, FL 33139, United States of America",-80.12996040226417,25.7858751
Parisian Hotel,Miami Beach,33139,1510,Collins Avenue,Florida,"1510 Collins Avenue, Miami Beach, FL 33139, United States of America",-80.13086125893861,25.7879027
McAlpin Hotel,Miami Beach,33139,1430,Ocean Drive,Florida,"1430 Ocean Drive, Miami Beach, FL 33139, United States of America",-80.12994015000001,25.7860096
Geneva Hotel,Miami Beach,33139,1520,Collins Avenue,Florida,"1520 Collins Avenue, Miami Beach, FL 33139, United States of America",-80.13085254394065,25.7880446
Hilton Grand Vacations at McAlpin-Ocean Plaza,Miami Beach,33139,,Ocean Court,Florida,"Ocean Court, Miami Beach, FL 33139, United States of America",-80.12992040222649,25.7861417
The Hall SouthBeach,Miami Beach,33139,1500,Collins Avenue,Florida,"1500 Collins Avenue, Miami Beach, FL 33139, United States of America",-80.1306932,25.7872715
Crowne Plaza South Beach - Z Ocean Hotel,Miami Beach,33139,,Collins Avenue,Florida,"Collins Avenue, Miami Beach, FL 33139, United States of America",-80.13003738475021,25.787107050000003
Aqua Hotel Miami Beach,Miami Beach,33139,,Collins Avenue,Florida,"Collins Avenue, Miami Beach, FL 33139, United States of America",-80.13104467571088,25.788254000000002
The Betsy South Beach,Miami Beach,33139,1440,Ocean Drive,Florida,"1440 Ocean Drive, Miami Beach, FL 33139, United States of America",-80.12976802250441,25.786464799999997
Aqua Hotel,Miami Beach,33139,1530,Collins Avenue,Florida,"1530 Collins Avenue, Miami Beach, FL 33139, United States of America",-80.13079038822542,25.78853335
HI-Miami Beach,Miami Beach,33139,,Collins Avenue,Florida,"Collins Avenue, Miami Beach, FL 33139, United States of America",-80.1305008,25.7878932
,Miami,33125,3341,Northwest 18th Terrace,Florida,"Miami, FL 33125, United States of America",-80.2508909,25.7920126
"Royal Palm South Beach Miami, a Tribute Portfolio Resort 2",Miami Beach,33139,,15th Street,Florida,"15th Street, Miami Beach, FL 33139, United States of America",-80.12908712760775,25.787941850000003
Bayside Motor Inn,Miami,33137,,Biscayne Boulevard,Florida,"Biscayne Boulevard, Miami, FL 33137, United States of America",-80.18675160468442,25.8231807
Hyatt Centric South Beach Miami,Miami Beach,33139,,16th Street,Florida,"16th Street, Miami Beach, FL 33139, United States of America",-80.13072423637949,25.789399349999997
Iberostar Berkeley Shore Hotel,Miami Beach,33139,1610,Collins Avenue,Florida,"1610 Collins Avenue, Miami Beach, FL 33139, United States of America",-80.1306097692059,25.7896581
"Royal Palm South Beach Miami, a Tribute Portfolio Resort",Miami Beach,33139,,Collins Avenue,Florida,"Collins Avenue, Miami Beach, FL 33139, United States of America",-80.12929405924972,25.78839955
Albion Hotel South Beach,Miami Beach,33139,,Lincoln Road,Florida,"Lincoln Road, Miami Beach, FL 33139, United States of America",-80.1309129730283,25.79111475
Greenview,Miami Beach,33139,,Washington Avenue,Florida,"Washington Avenue, Miami Beach, FL 33139, United States of America",-80.1314957,25.79157935
Crest Hotel Suites,Miami Beach,33139,,James Avenue,Florida,"James Avenue, Miami Beach, FL 33139, United States of America",-80.13107794999999,25.79151085
Loews Miami Beach Hotel,Miami Beach,33139,1601,Collins Avenue,Florida,"1601 Collins Avenue, Miami Beach, FL 33139, United States of America",-80.12934426562256,25.7893831
Beds & Drinks,Miami Beach,33139,1676,James Avenue,Florida,"1676 James Avenue, Miami Beach, FL 33139, United States of America",-80.13109045433751,25.79173235
James,Miami Beach,33139,1680,James Avenue,Florida,"Miami Beach, FL 33139, United States of America",-80.1310927,25.79197695
Urbanica The Kaskades South Beach,Miami Beach,33139,300,17th Street,Florida,"300 17th Street, Miami Beach, FL 33139, United States of America",-80.13110209999999,25.79212645
Travelodge by Wyndham Miami Biscayne Bay,Miami,33137,5255,Biscayne Boulevard,Florida,"5255 Biscayne Boulevard, Miami, FL 33137, United States of America",-80.18647301575982,25.824781950000002
San Juan Hotel South Beach,Miami Beach,33139,,Collins Avenue,Florida,"Collins Avenue, Miami Beach, FL 33139, United States of America",-80.13027976896754,25.7919566
Gale South Beach,Miami Beach,33139,1690,Collins Avenue,Florida,"1690 Collins Avenue, Miami Beach, FL 33139, United States of America",-80.130258414477,25.79213865
"The Ritz-Carlton, South Beach",Miami Beach,33139,1,Lincoln Road,Florida,"1 Lincoln Road, Miami Beach, FL 33139, United States of America",-80.1293205640344,25.7911682
Cadet Hotel,Miami Beach,33139,1701,James Avenue,Florida,"1701 James Avenue, Miami Beach, FL 33139, United States of America",-80.13053125701646,25.79256895
Lincoln Arms Suites,Miami Beach,33139,1800,James Avenue,Florida,"1800 James Avenue, Miami Beach, FL 33139, United States of America",-80.13131602302576,25.7941079
Prime Hotel Claremont,Miami Beach,33139,1700,Collins Avenue,Florida,"1700 Collins Avenue, Miami Beach, FL 33139, United States of America",-80.13007127048863,25.792613
Rewal's house,Miami,33125,1521,Northwest 37th Avenue,Florida,"1521 Northwest 37th Avenue, Miami, FL 33125, United States of America",-80.2556877,25.7882943
"Sagamore, The Art Hotel",Miami Beach,33139,1671,Collins Avenue,Florida,"1671 Collins Avenue, Miami Beach, FL 33139, United States of America",-80.12916774306075,25.79163645
Ernesto Motel,Miami,33134,4001,West Flagler Street,Florida,"4001 West Flagler Street, Miami, FL 33134, United States of America",-80.26155468052539,25.772020849999997
Dorset Hotel,Miami Beach,33139,1720,Collins Avenue,Florida,"1720 Collins Avenue, Miami Beach, FL 33139, United States of America",-80.13004024920863,25.79284345
National,Miami Beach,33139,1677,Collins Avenue,Florida,"1677 Collins Avenue, Miami Beach, FL 33139, United States of America",-80.12931036409397,25.79180045
The Catalina Hotel & Beach Club,Miami Beach,33139,1732,Collins Avenue,Florida,"1732 Collins Avenue, Miami Beach, FL 33139, United States of America",-80.12999857413126,25.7931206
Delano South Beach,Miami Beach,33139,1685,Collins Avenue,Florida,"1685 Collins Avenue, Miami Beach, FL 33139, United States of America",-80.12917450022144,25.792123750000002
The Redbury South Beach,Miami Beach,33139,1776,Collins Avenue,Florida,"1776 Collins Avenue, Miami Beach, FL 33139, United States of America",-80.12980064342187,25.7936716
Pestana Miami South Beach,Miami Beach,33139,1817,James Avenue,Florida,"1817 James Avenue, Miami Beach, FL 33139, United States of America",-80.13041735440737,25.794328450000002
Courtyard by Marriott Miami Coral Gables,,33134,2051,Minorca Avenue,Florida,"2051 Minorca Avenue, Coral Gables, FL 33134, United States of America",-80.2624539173996,25.75376985
SLS South Beach,Miami Beach,33139,1701,Collins Avenue,Florida,"1701 Collins Avenue, Miami Beach, FL 33139, United States of America",-80.12914365370872,25.79259665
Kimpton Surfcomber Hotel,Miami Beach,33139,1717,Collins Avenue,Florida,"1717 Collins Avenue, Miami Beach, FL 33139, United States of America",-80.12863931285972,25.79291105
Berkeley Park MGallery Hotel Collection,Miami Beach,33139,334,20th Street,Florida,"334 20th Street, Miami Beach, FL 33139, United States of America",-80.13111540117745,25.7959395
Marseilles Beachfront Hotel,Miami Beach,33139,1741,Collins Avenue,Florida,"1741 Collins Avenue, Miami Beach, FL 33139, United States of America",-80.12902360000001,25.7931928
South Seas,Miami Beach,33139,,Collins Avenue,Florida,"Collins Avenue, Miami Beach, FL 33139, United States of America",-80.12888180165737,25.79333785
The Richmond,Miami Beach,33139,,Collins Avenue,Florida,"Collins Avenue, Miami Beach, FL 33139, United States of America",-80.1288610386666,25.79348995
Dorchester Miami Beach Hotel & Suites,Miami Beach,33139,,19th Street,Florida,"19th Street, Miami Beach, FL 33139, United States of America",-80.1299504124278,25.7948589
Best Western Premier Miami Intl Airport Hotel & Suites Coral Gables,Miami,33134,4100,West Flagler Street,Florida,"4100 West Flagler Street, Miami, FL 33134, United States of America",-80.26283370053262,25.771251550000002
Riviera Hotel & Suites South Beach,Miami Beach,33139,318,20th Street,Florida,"318 20th Street, Miami Beach, FL 33139, United States of America",-80.13064877096039,25.795857050000002
Hotel Belleza,Miami Beach,33139,2115,Washington Avenue,Florida,"2115 Washington Avenue, Miami Beach, FL 33139, United States of America",-80.13173610134655,25.7976652
Four Points by Sheraton Coral Gables,Miami,33133,,Southwest 40th Street,Florida,"Southwest 40th Street, Miami, FL 33133, United States of America",-80.25760827430102,25.7352231
The Raleigh,Miami Beach,33139,1775,Collins Avenue,Florida,"1775 Collins Avenue, Miami Beach, FL 33139, United States of America",-80.12896869297693,25.79372505
Lennox Miami Beach,Miami Beach,33139,1900,Collins Avenue,Florida,"1900 Collins Avenue, Miami Beach, FL 33139, United States of America",-80.13003769140698,25.7952193
Shelborne South Beach,Miami Beach,33139,1801,Collins Avenue,Florida,"1801 Collins Avenue, Miami Beach, FL 33139, United States of America",-80.12888760034585,25.7941779
Rivera Hotel Apartments,Miami Beach,33139,2000,Liberty Avenue,Florida,"2000 Liberty Avenue, Miami Beach, FL 33139, United States of America",-80.13046033579471,25.7963053
Nautilus by Arlo,Miami Beach,33139,1825,Collins Avenue,Florida,"1825 Collins Avenue, Miami Beach, FL 33139, United States of America",-80.12879976181283,25.7944355
Radisson RED Miami Airport,,33142,3401,Northwest 25th Street,Florida,"3401 Northwest 25th Street, Miami-Dade County, FL 33142, United States of America",-80.25150345975722,25.79925605
The Originals Shore Club Miami Beach,Miami Beach,33139,,20th Street,Florida,"20th Street, Miami Beach, FL 33139, United States of America",-80.12861862956841,25.79489045
Ansonia Hotel South Beach,Miami Beach,33139,318,21st Street,Florida,"318 21st Street, Miami Beach, FL 33139, United States of America",-80.1302963800405,25.79663005
Aloft Coral Gables,,33134,,Southwest 42nd Avenue,Florida,"Southwest 42nd Avenue, Coral Gables, FL 33134, United States of America",-80.26308993316681,25.747714600000002
Boulan South Beach,Miami Beach,33139,,Collins Avenue,Florida,"Collins Avenue, Miami Beach, FL 33139, United States of America",-80.12932279391055,25.795968950000002
SBH South Beach Hotel,Miami Beach,33139,,Liberty Avenue,Florida,"Liberty Avenue, Miami Beach, FL 33139, United States of America",-80.12978220303798,25.7964315
Townhouse Hotel Miami,Miami Beach,33139,150,20th Street,Florida,"150 20th Street, Miami Beach, FL 33139, United States of America",-80.12888339922091,25.79532095
"EVEN Hotel Miami - Airport, an IHG Hotel",,33142,3499,Northwest 25th Street,Florida,"3499 Northwest 25th Street, Miami-Dade County, FL 33142, United States of America",-80.2522280929679,25.7993997
The Setai Miami Beach,Miami Beach,33139,,20th Street,Florida,"20th Street, Miami Beach, FL 33139, United States of America",-80.12865037149007,25.795909350000002
KAYAK Miami Beach,Miami Beach,33139,2216,Park Avenue,Florida,"2216 Park Avenue, Miami Beach, FL 33139, United States of America",-80.13040456766859,25.7986325
Residence Inn by Marriott Miami Airport,Miami,33126,,Northwest 39th Court,Florida,"Northwest 39th Court, Miami, FL 33126, United States of America",-80.26170180242522,25.78388575
Element Miami International Airport,,33142,3525,Northwest 25th Street,Florida,"3525 Northwest 25th Street, Miami-Dade County, FL 33142, United States of America",-80.25323379431833,25.79957755
TownePlace Suites by Marriott Miami Airport,Miami,33126,4021,Northwest 11th Street,Florida,"4021 Northwest 11th Street, Miami, FL 33126, United States of America",-80.26270298621722,25.78297355
Courtyard by Marriott Miami Airport,Miami,33126,1201,Dolphin Expressway,Florida,"1201 Dolphin Expressway, Miami, FL 33126, United States of America",-80.26230653791939,25.7848332
Miami Airport Marriott,Miami,33125,,Northwest 42nd Avenue,Florida,"Northwest 42nd Avenue, Miami, FL 33125, United States of America",-80.26292668899205,25.78408585
Fairfield Inn & Suites by Marriott Miami Airport South,Miami,33126,4101,Northwest 11th Street,Florida,"4101 Northwest 11th Street, Miami, FL 33126, United States of America",-80.2632143207853,25.782715
Casa d dunier,Miami,33134,,Northwest 42nd Avenue,Florida,"Northwest 42nd Avenue, Miami, FL 33134, United States of America",-80.2650511,25.776056
W South Beach,Miami Beach,33139,,22nd Street,Florida,"22nd Street, Miami Beach, FL 33139, United States of America",-80.12724020772615,25.797541250000002
Tradewinds Apartment Hotel,Miami Beach,33140,2365,West 24th Street,Florida,"2365 West 24th Street, Miami Beach, FL 33140, United States of America",-80.1294921971347,25.80032415
Sonesta Miami Airport,Miami,33126,950,Northwest 42nd Avenue,Florida,"950 Northwest 42nd Avenue, Miami, FL 33126, United States of America",-80.2648639500745,25.781154450000002
freehand,Miami Beach,33140,,Pine Tree Drive,Florida,"Pine Tree Drive, Miami Beach, FL 33140, United States of America",-80.1297065,25.800891
1 Hotel South Beach,Miami Beach,33140,,24th Street,Florida,"24th Street, Miami Beach, FL 33140, United States of America",-80.12730658429538,25.79913585
"Staybridge Suites Miami International Airport, an IHG Hotel",,33142,3651,Northwest 25th Street,Florida,"3651 Northwest 25th Street, Miami-Dade County, FL 33142, United States of America",-80.2556709549217,25.79922715
Regency Hotel,Miami,33126,1000,Northwest 42nd Avenue,Florida,"1000 Northwest 42nd Avenue, Miami, FL 33126, United States of America",-80.26491133426384,25.78179605
Sheraton Miami Airport Hotel & Executive Meeting Center,,33125,,Northwest 21st Street,Florida,"Northwest 21st Street, Miami-Dade County, FL 33125, United States of America",-80.25944298782582,25.79450795
Aloft South Beach Hotel,Miami Beach,33140,,Flamingo Drive,Florida,"Flamingo Drive, Miami Beach, FL 33140, United States of America",-80.12815852929727,25.799652299999998
Seven Seas Motel,Miami,33101,5940,Biscayne Boulevard,Florida,"5940 Biscayne Boulevard, Miami, FL 33101, United States of America",-80.18527192457248,25.83058435
Miami Princess Hotel,Miami,33126,,Northwest 12th Street,Florida,"Northwest 12th Street, Miami, FL 33126, United States of America",-80.26471567568564,25.783225199999997
Roney Palace Condo,Miami Beach,33140,2301,Collins Avenue,Florida,"2301 Collins Avenue, Miami Beach, FL 33140, United States of America",-80.1267581,25.7983843
Ankara,Miami Beach,33140,,Collins Avenue,Florida,"Collins Avenue, Miami Beach, FL 33140, United States of America",-80.1279151,25.8000325
Carl's El Padre Motel,Miami,33101,,Northeast 5th Court,Florida,"Northeast 5th Court, Miami, FL 33101, United States of America",-80.1850614,25.8309207
The Mantell Plaza,Miami Beach,33140,255,West 24th Street,Florida,"255 West 24th Street, Miami Beach, FL 33140, United States of America",-80.12810128185721,25.8008583
Casa Grande 4351,Miami,33126,4351 NW,Northwest 9th Street,Florida,"4351 NW Northwest 9th Street, Miami, FL 33126, United States of America",-80.2665529,25.7810449
COMO Metropolitan Miami Beach,Miami Beach,33140,2445,Collins Avenue,Florida,"2445 Collins Avenue, Miami Beach, FL 33140, United States of America",-80.12614327762344,25.80043675
Stardust Motel,Miami,33134,4525,Southwest 8th Street,Florida,"4525 Southwest 8th Street, Miami, FL 33134, United States of America",-80.27039698676639,25.764486050000002
David William Hotel Condo Association,,33134,700,Biltmore Way,Florida,"700 Biltmore Way, Coral Gables, FL 33134, United States of America",-80.26950345283501,25.7476403
Jamaica Motel,Miami,33134,4601,Southwest 8th Street,Florida,"4601 Southwest 8th Street, Miami, FL 33134, United States of America",-80.2708208604325,25.764446
Sinbad Motel,Miami,33137,6150,Biscayne Boulevard,Florida,"6150 Biscayne Boulevard, Miami, FL 33137, United States of America",-80.18437025885416,25.8331457
Shalimar Motel,Miami,33138,6200,Biscayne Boulevard,Florida,"6200 Biscayne Boulevard, Miami, FL 33138, United States of America",-80.18445580516337,25.833726
Lorraine Hotel,Miami Beach,33140,,26th Street,Florida,"26th Street, Miami Beach, FL 33140, United States of America",-80.12582964980456,25.802489549999997
OYO Hotel Coral Gables - Miami Airport,Miami,33134,4700,Southwest 8th Street,Florida,"4700 Southwest 8th Street, Miami, FL 33134, United States of America",-80.27212955100046,25.76389785
,Miami,33138,,Northeast 63rd Street,Florida,"Miami, FL 33138, United States of America",-80.18606925896452,25.8338765
Pine Tree Gardens Inn,Miami Beach,33140,2931,Sheridan Avenue,Florida,"2931 Sheridan Avenue, Miami Beach, FL 33140, United States of America",-80.12851706299097,25.80629295
Silver Sands Beach Resort,Key Biscayne,33149,301,Ocean Drive,Florida,"301 Ocean Drive, Key Biscayne, FL 33149, United States of America",-80.15793482986231,25.6955443
South Pacific Motel,Miami,33101,6300,Biscayne Boulevard,Florida,"6300 Biscayne Boulevard, Miami, FL 33101, United States of America",-80.1844885,25.8343485
,Miami,33138,,Northeast 63rd Street,Florida,"Miami, FL 33138, United States of America",-80.18456235,25.83432985
Freehand Miami,Miami Beach,33140,2731,Indian Creek Drive,Florida,"2731 Indian Creek Drive, Miami Beach, FL 33140, United States of America",-80.1263489020534,25.804542249999997
,Miami,33101,,Biscayne Boulevard,Florida,"Miami, FL 33101, United States of America",-80.18432867284645,25.8344059
AC Hotel by Marriott Miami Beach,Miami Beach,33140,,29th Street,Florida,"29th Street, Miami Beach, FL 33140, United States of America",-80.12538580682406,25.80544025
Alden Hotel Miami Beach,Miami Beach,33140,2925,Indian Creek Drive,Florida,"2925 Indian Creek Drive, Miami Beach, FL 33140, United States of America",-80.12580515000002,25.8058356
New Yorker Boutique Hotel,Miami,33138,,Northeast 65th Street,Florida,"Northeast 65th Street, Miami, FL 33138, United States of America",-80.18450025900464,25.8360213
The Miami Beach EDITION,Miami Beach,33140,,30th Street,Florida,"30th Street, Miami Beach, FL 33140, United States of America",-80.1242146795606,25.80535045
Hilton Garden Inn Miami South Beach,Miami Beach,33140,,30th Street,Florida,"30th Street, Miami Beach, FL 33140, United States of America",-80.1249367,25.805819
"Holiday Inn Express & Suites Miami Airport East, an IHG Hotel",,33142,2601,Northwest 42nd Avenue,Florida,"2601 Northwest 42nd Avenue, Miami-Dade County, FL 33142, United States of America",-80.26358946778421,25.799854699999997
Red South Beach Hotel,Miami Beach,33140,3010,Collins Avenue,Florida,"3010 Collins Avenue, Miami Beach, FL 33140, United States of America",-80.12478173299897,25.8061863
Palihouse Miami Beach,Miami Beach,33140,3101,Indian Creek Drive,Florida,"3101 Indian Creek Drive, Miami Beach, FL 33140, United States of America",-80.12514912644559,25.8069791
The Palms Hotel & Spa,Miami Beach,33140,3025,Collins Avenue,Florida,"3025 Collins Avenue, Miami Beach, FL 33140, United States of America",-80.12404986522854,25.80610015
Generator Miami,Miami Beach,33140,3120,Collins Avenue,Florida,"3120 Collins Avenue, Miami Beach, FL 33140, United States of America",-80.12436605,25.80705915
Sun Aire Motel,Miami,33134,4871,West Flagler Street,Florida,"4871 West Flagler Street, Miami, FL 33134, United States of America",-80.27501570237987,25.7715511
Hotel Riu Plaza Miami Beach,Miami Beach,33140,3101,Collins Avenue,Florida,"3101 Collins Avenue, Miami Beach, FL 33140, United States of America",-80.12368641524668,25.806729150000002
"The Ritz-Carlton Key Biscayne, Miami",Key Biscayne,33149,455,Grand Bay Drive South,Florida,"455 Grand Bay Drive South, Key Biscayne, FL 33149, United States of America",-80.15802475805843,25.6915479
Biscayne Inn,Miami,33138,,Northeast 68th Street,Florida,"Northeast 68th Street, Miami, FL 33138, United States of America",-80.18477445369504,25.83782115
Faena Hotel Miami Beach,Miami Beach,33140,3201,Collins Avenue,Florida,"3201 Collins Avenue, Miami Beach, FL 33140, United States of America",-80.12313905536755,25.80737845
Beach Haus Key Biscayne,Key Biscayne,33149,285,Sunrise Drive,Florida,"285 Sunrise Drive, Key Biscayne, FL 33149, United States of America",-80.16045796814245,25.69032245
Extacy Motel,Miami,33134,4911,West Flagler Street,Florida,"4911 West Flagler Street, Miami, FL 33134, United States of America",-80.2763067212685,25.7715553
Embassy Suites by Hilton Miami International Airport,,33142,3974,Northwest South River Drive,Florida,"3974 Northwest South River Drive, Miami Springs, FL 33142, United States of America",-80.26153580935407,25.806602849999997
La Quinta Inn & Suites by Wyndham Miami Airport East,,33142,3501,Northwest 42nd Avenue,Florida,"3501 Northwest 42nd Avenue, Miami Springs, FL 33142, United States of America",-80.26215941746767,25.8058032
Illusion Motel,Miami,33134,4995,West Flagler Street,Florida,"4995 West Flagler Street, Miami, FL 33134, United States of America",-80.27646550106341,25.7715325
Red Roof PLUS+ Miami Airport,,33142,3401,Northwest 42nd Avenue,Florida,"3401 Northwest 42nd Avenue, Miami Springs, FL 33142, United States of America",-80.26307919999999,25.80513835
Casa Faena,Miami Beach,33140,3500,Collins Avenue,Florida,"3500 Collins Avenue, Miami Beach, FL 33140, United States of America",-80.12391073542081,25.8092512
,Miami Beach,33140,3605,Indian Creek Drive,Florida,"Miami Beach, FL 33140, United States of America",-80.124578,25.8099757
Hampton Inn Miami Airport East,,33142,3449,Northwest 42nd Avenue,Florida,"3449 Northwest 42nd Avenue, Miami Springs, FL 33142, United States of America",-80.2632432067537,25.80570555
Saturn Motel - Miami,Miami,33138,,Northeast 70th Street,Florida,"Northeast 70th Street, Miami, FL 33138, United States of America",-80.18399422853571,25.839409099999997
Hyatt Place Miami Airport-East,,33142,3549,Northwest 42nd Avenue,Florida,"3549 Northwest 42nd Avenue, Miami Springs, FL 33142, United States of America",-80.26303529574115,25.806346050000002
Westgate South Beach,Miami Beach,33140,3611,Collins Avenue,Florida,"3611 Collins Avenue, Miami Beach, FL 33140, United States of America",-80.12309844109919,25.8098394
Hotel Croydon,Miami Beach,33140,3720,Collins Avenue,Florida,"3720 Collins Avenue, Miami Beach, FL 33140, United States of America",-80.12366779695267,25.81091985
Luxury Rentals Miami Beach,Miami Beach,33140,301,41st Street,Florida,"301 41st Street, Miami Beach, FL 33140, United States of America",-80.1268597,25.8140019
Venezia Hotel Miami,Miami Beach,33140,3865,Indian Creek Drive,Florida,"3865 Indian Creek Drive, Miami Beach, FL 33140, United States of America",-80.1242352,25.8116353
Gables Inn,,33146,730,South Dixie Highway,Florida,"730 South Dixie Highway, Coral Gables, FL 33146, United States of America",-80.26745323479798,25.721847
G G Motel,Miami,33134,5121,West Flagler Street,Florida,"5121 West Flagler Street, Miami, FL 33134, United States of America",-80.27843102662897,25.771465749999997
Treehouse Studio Hotel,Miami,33138,7126,Biscayne Boulevard,Florida,"7126 Biscayne Boulevard, Miami, FL 33138, United States of America",-80.18460224937573,25.840834700000002
King Motel,Miami,33138,7150,Biscayne Boulevard,Florida,"7150 Biscayne Boulevard, Miami, FL 33138, United States of America",-80.18483891565076,25.84102335
Circa 39 Hotel,Miami Beach,33140,3900,Collins Avenue,Florida,"3900 Collins Avenue, Miami Beach, FL 33140, United States of America",-80.12348589650689,25.8120261
Imperial Motel,Miami,33134,5180,West Flagler Street,Florida,"5180 West Flagler Street, Miami, FL 33134, United States of America",-80.27928425453283,25.770761200000003
Cadillac Hotel & Beach Club,Miami Beach,33140,3921,Collins Avenue,Florida,"3921 Collins Avenue, Miami Beach, FL 33140, United States of America",-80.12277083024617,25.8120573
Everglades Motel,Hialeah,33010,1421,Southeast 9th Avenue,Florida,"1421 Southeast 9th Avenue, Hialeah, FL 33010, United States of America",-80.26244858164145,25.810064349999998
Hampton Inn Miami Beach - Mid Beach,Miami Beach,33140,4000,Collins Avenue,Florida,"4000 Collins Avenue, Miami Beach, FL 33140, United States of America",-80.12329977561484,25.81267205
"Holiday Inn Miami-International Airport, an IHG Hotel",,33166,1111,South Royal Poinciana Boulevard,Florida,"1111 South Royal Poinciana Boulevard, Miami Springs, FL 33166, United States of America",-80.2635341883018,25.809194650000002
The Confidante Miami Beach - The Unbound Collection by Hyatt,Miami Beach,33140,4041,Collins Avenue,Florida,"4041 Collins Avenue, Miami Beach, FL 33140, United States of America",-80.12237023653392,25.81273135
Westover Arms Hotel,Miami Beach,33140,,41st Street,Florida,"41st Street, Miami Beach, FL 33140, United States of America",-80.12323700765265,25.81331115
L Hotel Miami Beach,Miami Beach,33140,4121,Indian Creek Drive,Florida,"4121 Indian Creek Drive, Miami Beach, FL 33140, United States of America",-80.12344800155384,25.8137017
,Miami Beach,33140,,Collins Avenue,Florida,"Miami Beach, FL 33140, United States of America",-80.12319648121496,25.8135374
Ocean Spray Hotel,Miami Beach,33140,4130,Collins Avenue,Florida,"4130 Collins Avenue, Miami Beach, FL 33140, United States of America",-80.12317305,25.813682749999998
Executive Presidente Hotel,Hialeah,33010,1395,Southeast 8th Court,Florida,"1395 Southeast 8th Court, Hialeah, FL 33010, United States of America",-80.26343390685543,25.81082955
Best Western Atlantic Beach Resort,Miami Beach,33140,4101,Collins Avenue,Florida,"4101 Collins Avenue, Miami Beach, FL 33140, United States of America",-80.12251119999999,25.81330705
Hotel Pierre,Miami Beach,33140,216,43rd Street,Florida,"216 43rd Street, Miami Beach, FL 33140, United States of America",-80.12334341327121,25.8143844
The Vagabond Hotel,Miami,33101,7301,Biscayne Boulevard,Florida,"7301 Biscayne Boulevard, Miami, FL 33101, United States of America",-80.18369749731588,25.842894049999998
Lexington by Hotel RL Miami Beach,Miami Beach,33140,4299,Collins Avenue,Florida,"4299 Collins Avenue, Miami Beach, FL 33140, United States of America",-80.12250325,25.8142048
EB Hotel Miami,,33166,4299,Northwest 36th Street,Florida,"4299 Northwest 36th Street, Miami Springs, FL 33166, United States of America",-80.26616786381327,25.808844450000002
Royal Motel,Miami,33138,7411,Biscayne Boulevard,Florida,"7411 Biscayne Boulevard, Miami, FL 33138, United States of America",-80.18413427442255,25.843484150000002
Royal Budget Inn,Miami,33138,7422,Biscayne Boulevard,Florida,"7422 Biscayne Boulevard, Miami, FL 33138, United States of America",-80.18494960367786,25.84357265
Aladdin Hotel Miami,,33166,901,South Royal Poinciana Boulevard,Florida,"901 South Royal Poinciana Boulevard, Miami Springs, FL 33166, United States of America",-80.26529889008958,25.8105542
Radisson Hotel Miami Beach,Miami Beach,33140,4343,Collins Avenue,Florida,"4343 Collins Avenue, Miami Beach, FL 33140, United States of America",-80.12225483598024,25.81557025
Soho Beach House,Miami Beach,33140,4385,Collins Avenue,Florida,"4385 Collins Avenue, Miami Beach, FL 33140, United States of America",-80.12190095634196,25.815885700000003
Fontainebleau Miami Beach,Miami Beach,33140,4441,Collins Avenue,Florida,"4441 Collins Avenue, Miami Beach, FL 33140, United States of America",-80.12204229557773,25.8180847
Selina Miami Gold Dust,Miami,33138,7700,Biscayne Boulevard,Florida,"7700 Biscayne Boulevard, Miami, FL 33138, United States of America",-80.18513304397592,25.846167899999998
Eden Roc Resort Miami Beach,Miami Beach,33140,4525,Collins Avenue,Florida,"4525 Collins Avenue, Miami Beach, FL 33140, United States of America",-80.12176721148916,25.8194734
Nexx Motel,Hialeah,33010,699,Okeechobee Road,Florida,"699 Okeechobee Road, Hialeah, FL 33010, United States of America",-80.26696400033666,25.81313635
Miami International Airport Hotel,Miami,33142,2100,Northwest 42nd Avenue,Florida,"2100 Northwest 42nd Avenue, Miami, FL 33142, United States of America",-80.2789563,25.7950032
Homewood Suites by Hilton Miami-Airport/Blue Lagoon,,33126,5500,Blue Lagoon Drive,Florida,"5500 Blue Lagoon Drive, Miami-Dade County, FL 33126, United States of America",-80.28452956223154,25.78167235
Mansion Motel,Hialeah,33010,611,Okeechobee Road,Florida,"611 Okeechobee Road, Hialeah, FL 33010, United States of America",-80.2683220515122,25.8140423
Hotel Miami Springs inn,,33166,661,East Drive,Florida,"661 East Drive, Miami Springs, FL 33166, United States of America",-80.2725120505815,25.808797300000002
Mimosa,Miami Beach,33140,4747,Collins Avenue,Florida,"4747 Collins Avenue, Miami Beach, FL 33140, United States of America",-80.1221698062545,25.82194525
Runway Inn Miami Airport Hotel,,33166,656,East Drive,Florida,"656 East Drive, Miami Springs, FL 33166, United States of America",-80.2728894917073,25.80875585
Holiday Inn Miami North - I-95,Miami,33150,7927,Northwest 7th Avenue,Florida,"7927 Northwest 7th Avenue, Miami, FL 33150, United States of America",-80.2085422746595,25.84806445
Comfort Inn & Suites Miami International Airport,,33166,665,Mokena Drive,Florida,"665 Mokena Drive, Miami Springs, FL 33166, United States of America",-80.27370057901604,25.808745799999997
Home2 Suites By Hilton Miami Airport South Blue Lagoon,,33126,1101,Blue Lagoon Drive,Florida,"1101 Blue Lagoon Drive, Miami-Dade County, FL 33126, United States of America",-80.2865329,25.781492999999998
Hialeah Motel,Hialeah,33010,555,Okeechobee Road,Florida,"555 Okeechobee Road, Hialeah, FL 33010, United States of America",-80.26941829455475,25.81497565
Mare Azur by Grand Bay,Miami,33138,7951,Northeast Bayshore Court,Florida,"7951 Northeast Bayshore Court, Miami, FL 33138, United States of America",-80.17324780106019,25.8485138
Days Inn by Wyndham Miami Airport North,,33166,4767,Northwest 36th Street,Florida,"4767 Northwest 36th Street, Miami Springs, FL 33166, United States of America",-80.27503426694086,25.80831545
Hampton Inn & Suites by Hilton Miami Airport South Blue Lagoon,Miami,33126,777,Southwest 57th Avenue,Florida,"777 Southwest 57th Avenue, Miami, FL 33126, United States of America",-80.28793879915013,25.779022249999997
Miami Beach Resort Spa,Miami Beach,33140,4833,Collins Avenue,Florida,"4833 Collins Avenue, Miami Beach, FL 33140, United States of America",-80.12156379901123,25.8239491
Comfort Suites Miami Airport North,,33166,657,Minola Drive,Florida,"657 Minola Drive, Miami Springs, FL 33166, United States of America",-80.27504814143222,25.808929
Motel X,Schmidts Adult Mobile Home Park,33147,7000,Northwest 27th Avenue,Florida,"7000 Northwest 27th Avenue, Schmidts Adult Mobile Home Park, FL 33147, United States of America",-80.24184085106273,25.838092
Grand Beach Hotel,Miami Beach,33140,4835,Collins Avenue,Florida,"4835 Collins Avenue, Miami Beach, FL 33140, United States of America",-80.1214190421646,25.8245568
River park hotel e suits miami,Miami Beach,33140,4835,Collins Avenue,Florida,"4835 Collins Avenue, Miami Beach, FL 33140, United States of America",-80.1214194,25.8245637
The Executive,Miami Beach,33140,4925,Collins Avenue,Florida,"4925 Collins Avenue, Miami Beach, FL 33140, United States of America",-80.12124934879171,25.82519735
Wyndham Garden Miami Int'l Airport,,33166,4909,Northwest 36th Street,Florida,"4909 Northwest 36th Street, Miami Springs, FL 33166, United States of America",-80.27687854814891,25.8084335
Hyatt House Miami Airport,,33126,5710,Blue Lagoon Drive,Florida,"5710 Blue Lagoon Drive, Miami-Dade County, FL 33126, United States of America",-80.28974623894229,25.7812306
Airbnb Helen,Miami,33138,1050,Northeast 82nd Street,Florida,"1050 Northeast 82nd Street, Miami, FL 33138, United States of America",-80.1753343,25.8505522
Carriage Club South,Miami Beach,33140,5001,Collins Avenue,Florida,"5001 Collins Avenue, Miami Beach, FL 33140, United States of America",-80.12119464247905,25.8256723
Carriage Club North,Miami Beach,33140,5005,Collins Avenue,Florida,"5005 Collins Avenue, Miami Beach, FL 33140, United States of America",-80.12125373623935,25.826428200000002
Ramada by Wyndham Miami Springs/Miami International Airport,,33166,5055,Northwest 36th Street,Florida,"5055 Northwest 36th Street, Miami Springs, FL 33166, United States of America",-80.27824514475401,25.80843285
Little River Canoe Outposts,Miami,33138,,Northeast 84th Street,Florida,"Northeast 84th Street, Miami, FL 33138, United States of America",-80.19595211813693,25.85275085
Capobella,Miami Beach,33140,5025,Collins Avenue,Florida,"5025 Collins Avenue, Miami Beach, FL 33140, United States of America",-80.12094432241398,25.8269594
Crystal House Condominiums,Miami Beach,33140,5055,Collins Avenue,Florida,"5055 Collins Avenue, Miami Beach, FL 33140, United States of America",-80.12116785589518,25.8274913
casa de Loriel,El Portal,33138,,Northeast 86th Street,Florida,"Northeast 86th Street, El Portal, FL 33138, United States of America",-80.1950355,25.8532771
casa de loriel,El Portal,33138,,Northeast 86th Street,Florida,"Northeast 86th Street, El Portal, FL 33138, United States of America",-80.1948555,25.8534012
Seacoast Suites Hotel,Miami Beach,33140,5101,Collins Avenue,Florida,"5101 Collins Avenue, Miami Beach, FL 33140, United States of America",-80.12125551571668,25.828197
Casa de Katiuska,Miami,62600,36,Northeast 85th Street,Florida,"36 Northeast 85th Street, Miami, FL 62600, United States of America",-80.1818047,25.8534481
Pullman Miami Airport Hotel,,33126,5800,Blue Lagoon Drive,Florida,"5800 Blue Lagoon Drive, Miami-Dade County, FL 33126, United States of America",-80.29178909093682,25.78187915
Clarion Inn & Suites Miami International Airport,,33166,5301,Northwest 36th Street,Florida,"5301 Northwest 36th Street, Miami Springs, FL 33166, United States of America",-80.28262765813179,25.80809725
Casa del mango,Miami,33126,,West Flagler Street,Florida,"West Flagler Street, Miami, FL 33126, United States of America",-80.2953193,25.7707512
Extended Stay America - Miami - Airport - Miami Springs,,33166,101,Fairway Drive,Florida,"101 Fairway Drive, Miami Springs, FL 33166, United States of America",-80.28303693019996,25.80898985
The Carriage House,Miami Beach,33140,5401,Collins Avenue,Florida,"5401 Collins Avenue, Miami Beach, FL 33140, United States of America",-80.12105295727929,25.83272795
Best Western On The Bay Inn & Marina,North Bay Village,33141,1819,John F. Kennedy Causeway,Florida,"1819 John F. Kennedy Causeway, North Bay Village, FL 33141, United States of America",-80.14834885674037,25.8490383
Sleep Inn Miami Airport,,33166,111,Fairway Drive,Florida,"111 Fairway Drive, Miami Springs, FL 33166, United States of America",-80.28446302192982,25.8086603
La Curra,Miami,33155,,Southwest 63rd Avenue,Florida,"Southwest 63rd Avenue, Miami, FL 33155, United States of America",-80.2979444,25.7660111
,North Bay Village,33141,1865,John F. Kennedy Causeway,Florida,"North Bay Village, FL 33141, United States of America",-80.1473206,25.8490938
Best Western Plus Miami Airport North Hotel & Suites,,33166,131,Fairway Drive,Florida,"131 Fairway Drive, Miami Springs, FL 33166, United States of America",-80.28559044442474,25.808733
Design Suites,Miami Beach,33140,5445,Collins Avenue,Florida,"5445 Collins Avenue, Miami Beach, FL 33140, United States of America",-80.1202977,25.834445
New Point,Miami Beach,33140,5445,Collins Avenue,Florida,"5445 Collins Avenue, Miami Beach, FL 33140, United States of America",-80.1203218,25.834754
International Inn on the Bay,Miami Beach,33141,2301,Normandy Drive,Florida,"2301 Normandy Drive, Miami Beach, FL 33141, United States of America",-80.14401237962443,25.8512975
,,33266,,Curtiss Parkway,Florida,"Miami Springs, FL 33266, United States of America",-80.2889784,25.8086755
Casa tamara,Miami Beach,33141,,Normandy Drive,Florida,"Normandy Drive, Miami Beach, FL 33141, United States of America",-80.1424528,25.8520817
airbnb,Miami Beach,33141,,West 63rd Street,Florida,"West 63rd Street, Miami Beach, FL 33141, United States of America",-80.1264463,25.843887
Extended Stay America - Miami - Airport - Blue Lagoon,,33126,6605,Northwest 7th Street,Florida,"6605 Northwest 7th Street, Miami-Dade County, FL 33126, United States of America",-80.30381693828375,25.778169849999998
Maison Grande Condominium,Miami Beach,33140,6039,Collins Avenue,Florida,"6039 Collins Avenue, Miami Beach, FL 33140, United States of America",-80.12022127766318,25.843139450000002
Budget Inn,Northwest Trailer Park,33147,8929,Northwest 27th Avenue,Florida,"8929 Northwest 27th Avenue, Northwest Trailer Park, FL 33147, United States of America",-80.24126713413384,25.85539735
Oceanside Hotel,Miami Beach,33141,6084,Collins Avenue,Florida,"6084 Collins Avenue, Miami Beach, FL 33141, United States of America",-80.12120443801157,25.844188250000002
Executive Airport Hotel,,33126,6700,Northwest 12th Street,Florida,"6700 Northwest 12th Street, Miami-Dade County, FL 33126, United States of America",-80.30512617024897,25.7839779
Venus Motel,Miami,33144,6891,Southwest 8th Street,Florida,"6891 Southwest 8th Street, Miami, FL 33144, United States of America",-80.30709034155709,25.763255049999998
"Candlewood Suites Miami Intl Airport - 36th St, an IHG Hotel",Virginia Gardens,33166,5911,Northwest 36th Street,Florida,"5911 Northwest 36th Street, Virginia Gardens, FL 33166, United States of America",-80.29582640072098,25.80792185
Hilton Cabana Miami Beach,Miami Beach,33140,6261,Collins Avenue,Florida,"6261 Collins Avenue, Miami Beach, FL 33140, United States of America",-80.12028105795633,25.84423755
SpringHill Suites Miami Airport South,,33126,6700,Northwest 7th Street,Florida,"6700 Northwest 7th Street, Miami-Dade County, FL 33126, United States of America",-80.3064972396707,25.77689625
Executive Tropic Garden Hotel,White House Trailer Park,33144,6925,Southwest 8th Street,Florida,"6925 Southwest 8th Street, White House Trailer Park, FL 33144, United States of America",-80.30762440359047,25.763559200000003
Lombardy Inn,Miami Beach,33141,,Collins Avenue,Florida,"Collins Avenue, Miami Beach, FL 33141, United States of America",-80.12076922675796,25.844961050000002
Cambria Hotel Miami Airport - Blue Lagoon,,33126,6750,Northwest 7th Street,Florida,"6750 Northwest 7th Street, Miami-Dade County, FL 33126, United States of America",-80.30745487221164,25.776844099999998
The Casablanca On The Ocean Hotel,Miami Beach,33141,6345,Collins Avenue,Florida,"6345 Collins Avenue, Miami Beach, FL 33141, United States of America",-80.12002009927775,25.845249000000003
Hialeah Executive Motel,Hialeah,33010,131,West 5th Street,Florida,"131 West 5th Street, Hialeah, FL 33010, United States of America",-80.28403890000001,25.8265581
Rodeway Inn South Miami - Coral Gables,,33143,5959,Southwest 71st Street,Florida,"5959 Southwest 71st Street, South Miami, FL 33143, United States of America",-80.29092674628205,25.7056803
DoubleTree by Hilton Miami Airport & Convention Center,,33126,711,Northwest 7th Street,Florida,"711 Northwest 7th Street, Miami-Dade County, FL 33126, United States of America",-80.31028166380779,25.7786336
Park Royal Miami Beach,Miami Beach,33141,6495,Indian Creek Drive,Florida,"6495 Indian Creek Drive, Miami Beach, FL 33141, United States of America",-80.12089773780815,25.8480619
Anchor STUDIOS / HOTEL,Hialeah,33010,903,West 1st Avenue,Florida,"903 West 1st Avenue, Hialeah, FL 33010, United States of America",-80.28345197516556,25.8301379
Palm Avenue Motel,Hialeah,33010,8,West 13th Street,Florida,"8 West 13th Street, Hialeah, FL 33010, United States of America",-80.28199114910902,25.8324796
Collins Hotel,Miami Beach,33141,6600,Collins Avenue,Florida,"6600 Collins Avenue, Miami Beach, FL 33141, United States of America",-80.12084208461987,25.84946775
The Mimosa Hotel,Miami Beach,33141,6525,Collins Avenue,Florida,"6525 Collins Avenue, Miami Beach, FL 33141, United States of America",-80.1197767284662,25.848611599999998
Sherry Frontenac,Miami Beach,33141,6565,Collins Avenue,Florida,"6565 Collins Avenue, Miami Beach, FL 33141, United States of America",-80.11976784073482,25.8493988
Hotel Marialy,Flagami,33144,,Southwest 15th Street,Florida,"Southwest 15th Street, Flagami, FL 33144, United States of America",-80.3123649,25.7562714
Deauville Beach Resort,Miami Beach,33141,6701,Collins Avenue,Florida,"6701 Collins Avenue, Miami Beach, FL 33141, United States of America",-80.11998318475368,25.850584050000002
,Miami Beach,33141,250,South Shore Drive,Florida,"Miami Beach, FL 33141, United States of America",-80.1329522,25.8576102
Holiday Motel,Flagami,33144,7290,Southwest 8th Street,Florida,"7290 Southwest 8th Street, Flagami, FL 33144, United States of America",-80.31354208729618,25.762542
Days Inn by Wyndham Miami International Airport,,33126,7250,Northwest 11th Street,Florida,"7250 Northwest 11th Street, Miami-Dade County, FL 33126, United States of America",-80.31398041768813,25.780623499999997
Chesapeake Motel Miami,Hialeah,33010,935,Okeechobee Road,Florida,"935 Okeechobee Road, Hialeah, FL 33010, United States of America",-80.29033203547974,25.830771249999998
The Carillon Hotel & Spa,Miami Beach,33141,6899,Collins Avenue,Florida,"6899 Collins Avenue, Miami Beach, FL 33141, United States of America",-80.11974349941843,25.85361805
M Boutique Hotel,Miami Beach,33141,6945,Abbott Avenue,Florida,"6945 Abbott Avenue, Miami Beach, FL 33141, United States of America",-80.1220734,25.85509115
,Miami Beach,33141,,69th Street,Florida,"Miami Beach, FL 33141, United States of America",-80.12027862577474,25.85456105
La Fuente Hotel,Flagami,33144,7470,Southwest 8th Street,Florida,"7470 Southwest 8th Street, Flagami, FL 33144, United States of America",-80.31688216387352,25.76230795
Vela Rouge,Miami Beach,33141,7130,Harding Avenue,Florida,"7130 Harding Avenue, Miami Beach, FL 33141, United States of America",-80.12173135,25.85667295
Crystal Beach Suites Hotel,Miami Beach,33141,6985,Collins Avenue,Florida,"6985 Collins Avenue, Miami Beach, FL 33141, United States of America",-80.12034262159148,25.85593925
Villa Byron Suites,Miami Beach,33141,7320,Byron Avenue,Florida,"7320 Byron Avenue, Miami Beach, FL 33141, United States of America",-80.12359045,25.8587925
Waterside Hotel,Miami Beach,33141,7310,Harding Avenue,Florida,"7310 Harding Avenue, Miami Beach, FL 33141, United States of America",-80.1224855497737,25.8587388
The New Hotel,Miami Beach,33141,7337,Harding Avenue,Florida,"7337 Harding Avenue, Miami Beach, FL 33141, United States of America",-80.12188970442784,25.85913755
Seaside Apartment Hotel,Miami Beach,33141,,76th Street,Florida,"76th Street, Miami Beach, FL 33141, United States of America",-80.12140358522214,25.860990100000002
Sirena Suites Miami Beach,Miami Beach,33141,,Harding Avenue,Florida,"Harding Avenue, Miami Beach, FL 33141, United States of America",-80.12252086673756,25.861574349999998
Ocean Surf Hotel,Miami Beach,33141,7436,Ocean Terrace,Florida,"7436 Ocean Terrace, Miami Beach, FL 33141, United States of America",-80.1202285,25.8603031
Days Inn & Suites Miami / North Beach Oceanfront,Miami Beach,33141,7450,Ocean Terrace,Florida,"7450 Ocean Terrace, Miami Beach, FL 33141, United States of America",-80.12016672500513,25.8605132
Beachside Apartment Hotel,Miami Beach,33141,7710,Harding Avenue,Florida,"7710 Harding Avenue, Miami Beach, FL 33141, United States of America",-80.12253117156105,25.8623662
Baltic Hotel,Miami Beach,33141,7643,Harding Avenue,Florida,"7643 Harding Avenue, Miami Beach, FL 33141, United States of America",-80.12193976407943,25.8620782
Aloft Miami Airport,,33166,7220,Northwest 36th Street,Florida,"7220 Northwest 36th Street, Miami-Dade County, FL 33166, United States of America",-80.31477535988105,25.8086807
CASA DE DON LUIS,Hialeah,33013,147,East 33rd Street,Florida,"147 East 33rd Street, Hialeah, FL 33013, United States of America",-80.2797449,25.8523475
,Courtly Manor,11890,,Northeast 112th Street,Florida,"Courtly Manor, FL 11890, United States of America",-80.16220771717121,25.8797103
,Myricks Trailer Park,33167,,Northwest 115th Street,Florida,"Myricks Trailer Park, FL 33167, United States of America",-80.2177418,25.8800748
"Motel 6 Miami, FL",,33166,7370,Northwest 36th Street,Florida,"7370 Northwest 36th Street, Miami-Dade County, FL 33166, United States of America",-80.31615227611732,25.8083696
Beachside Apartment Hotel,Miami Beach,33141,8100,Harding Avenue,Florida,"8100 Harding Avenue, Miami Beach, FL 33141, United States of America",-80.1225119407583,25.86627185
The Donovan at Miami Beach,Miami Beach,33141,,Harding Avenue,Florida,"Harding Avenue, Miami Beach, FL 33141, United States of America",-80.1225079354707,25.86647285
Star Motel,Hialeah,33010,1651,Okeechobee Road,Florida,"1651 Okeechobee Road, Hialeah, FL 33010, United States of America",-80.29910777519156,25.836894299999997
Extended Stay America,,33122,7750,Northwest 25th Street,Florida,"7750 Northwest 25th Street, Doral, FL 33122, United States of America",-80.32233072493548,25.79572255
La Quinta Inn by Wyndham Miami Airport North,,33166,7401,Northwest 74th Avenue,Florida,"7401 Northwest 74th Avenue, Miami-Dade County, FL 33166, United States of America",-80.31670084993664,25.81055125
Hilton Garden Inn Miami Airport West,,33122,,Northwest 35th Terrace,Florida,"Northwest 35th Terrace, Miami-Dade County, FL 33122, United States of America",-80.3183144263597,25.8078885
Crossway Motel,Hialeah,33010,1775,Okeechobee Road,Florida,"1775 Okeechobee Road, Hialeah, FL 33010, United States of America",-80.299402,25.837587499999998
Homewood Suites by Hilton Miami - Airport West,,33122,,Northwest 35th Terrace,Florida,"Northwest 35th Terrace, Miami-Dade County, FL 33122, United States of America",-80.31966008648234,25.80795735
Four Points by Sheraton Miami Airport,,33166,3570,Northwest 74th Avenue,Florida,"3570 Northwest 74th Avenue, Miami-Dade County, FL 33166, United States of America",-80.31893923333334,25.80862445
Hampton Inn Miami Dadeland,,33143,8200,Southwest 70th Avenue,Florida,"8200 Southwest 70th Avenue, Miami-Dade County, FL 33143, United States of America",-80.3070423489884,25.694009899999998
WoodSpring Suites Doral Miami Airport,,33166,7500,Northwest 41st Street,Florida,"7500 Northwest 41st Street, Miami-Dade County, FL 33166, United States of America",-80.31869129447014,25.81124665
Leeward Motel,Courtly Manor,33181,11790,Biscayne Boulevard,Florida,"11790 Biscayne Boulevard, Courtly Manor, FL 33181, United States of America",-80.16580396597314,25.884618449999998
Aida’s,Hialeah,33012,391,West 31st Street,Florida,"391 West 31st Street, Hialeah, FL 33012, United States of America",-80.2896396,25.8502001
