name,city,postcode,street,address2,Transport_Type,Transport,Route,longitude,latitude
Brickell Avenue & Southeast 13th Street,Miami,33131,Brickell Avenue,"Brickell Avenue, Miami, FL 33131, United States of America",City of Miami;Miami-Dade Transit,bus_stop,Brickell Av & SE 13th St,-80.1921011,25.7613379
Southeast 13th Street & Brickell Avenue,Miami,33131,Southeast 13th Street,"Southeast 13th Street, Miami, FL 33131, United States of America",Broward County Transit;Miami-Dade Transit,bus_stop,SE 13th St & Brickell Av,-80.1925005,25.7617231
Brickell Avenue & Southeast 14th Terrace,Miami,33131,Brickell Avenue,"Brickell Avenue, Miami, FL 33131, United States of America",City of Miami;Miami-Dade Transit,bus_stop,Brickell Av & SE 14th Te,-80.1925671,25.7595492
Brickell Avenue & Southeast 15th Road,Miami,33131,Brickell Avenue,"Brickell Avenue, Miami, FL 33131, United States of America",City of Miami;Miami-Dade Transit,bus_stop,Brickell Av & SE 15th Rd,-80.1932826,25.757799
Brickell Avenue & Southeast 15th Road,Miami,33131,Brickell Avenue,"Brickell Avenue, Miami, FL 33131, United States of America",City of Miami;Miami-Dade Transit,bus_stop,Brickell Av & SE 15th Rd,-80.1932987,25.7575001
Southwest 2nd Avenue & Southwest 11th Street,Miami,33131,Southwest 2nd Avenue,"Southwest 2nd Avenue, Miami, FL 33131, United States of America",City of Miami;Miami-Dade Transit,bus_stop,SW 2nd Av & SW 11th St,-80.1972124,25.7632553
Southwest 13th Street & Southwest 2nd Avenue,Miami,33129,Southwest 13th Street,"Southwest 13th Street, Miami, FL 33129, United States of America",Miami-Dade Transit,bus_stop,SW 13th St & SW 2nd Av,-80.1979617,25.7615366
Southwest 13th Street & Southwest 3rd Avenue,Miami,33129,Southwest 13th Street,"Southwest 13th Street, Miami, FL 33129, United States of America",Miami-Dade Transit,bus_stop,SW 13th St & SW 3rd Av,-80.1982997,25.7613598
Southwest 3rd Avenue & Southwest 15th Road,Miami,33145,Southwest 3rd Avenue,"Southwest 3rd Avenue, Miami, FL 33145, United States of America",City of Miami,bus_stop,SW 3rd Av & SW 15th Rd,-80.199446,25.761226
Southwest 8th Street & Southwest 2nd Avenue,Miami,33131,Southwest 8th Street,"Southwest 8th Street, Miami, FL 33131, United States of America",Miami-Dade Transit,bus_stop,SW 8th St & SW 2nd Av,-80.1979011,25.7661904
Brickell Avenue & 1800 Block,Miami,33129,Brickell Avenue,"Brickell Avenue, Miami, FL 33129, United States of America",City of Miami;Miami-Dade Transit,bus_stop,Brickell Av & 1800 Blk,-80.1963614,25.7556877
Brickell Avenue & 1800 Block,Miami,33129,Brickell Avenue,"Brickell Avenue, Miami, FL 33129, United States of America",City of Miami;Miami-Dade Transit,bus_stop,Brickell Av & 1800 Blk,-80.1962109,25.7554666
Southwest 7th Street & Southwest 2nd Avenue,Miami,33130,Southwest 7th Street,"Southwest 7th Street, Miami, FL 33130, United States of America",Miami-Dade Transit,bus_stop,SW 7th St & SW 2nd Av,-80.1979626,25.767303
Southwest 3rd Avenue & Southwest 18th Road,Miami,33145,Southwest 3rd Avenue,"Southwest 3rd Avenue, Miami, FL 33145, United States of America",City of Miami,bus_stop,SW 3rd Av & SW 18th Rd,-80.2011513,25.7600732
Southwest 7th Street & Southwest 4th Avenue,Miami,33130,I 95,"I 95, Miami, FL 33130, United States of America",Miami-Dade Transit,bus_stop,SW 7th St & SW 4th Av,-80.2005065,25.7672441
Brickell Avenue & 1925 Block,Miami,33129,Brickell Avenue,"Brickell Avenue, Miami, FL 33129, United States of America",City of Miami;Miami-Dade Transit,bus_stop,Brickell Av & 1925 Blk,-80.1984767,25.7539284
Southwest 3rd Avenue & Southwest 19th Road,Miami,33145,Southwest 3rd Avenue,"Southwest 3rd Avenue, Miami, FL 33145, United States of America",City of Miami;Miami-Dade Transit,bus_stop,SW 3rd Av & SW 19th Rd,-80.2026275,25.7594225
Brickell Avenue & 1990 Block,Miami,33129,Brickell Avenue,"Brickell Avenue, Miami, FL 33129, United States of America",City of Miami;Miami-Dade Transit,bus_stop,Brickell Av & 1990 Blk,-80.1989105,25.753932
Southwest 2nd Avenue & Southwest 3rd Street,Miami,33129,Southwest 2nd Avenue,"Southwest 2nd Avenue, Miami, FL 33129, United States of America",City of Miami;Miami-Dade Transit,bus_stop,SW 2nd Av & SW 3rd St,-80.1977056,25.7707125
Southwest 8th Street & Southwest 5th Avenue,Miami,33130,Southwest 8th Street,"Southwest 8th Street, Miami, FL 33130, United States of America",Miami-Dade Transit,bus_stop,SW 8th St & SW 5th Av,-80.2025921,25.7660618
Southwest 3rd Avenue & Southwest 20th Road,Miami,33145,Southwest 3rd Avenue,"Southwest 3rd Avenue, Miami, FL 33145, United States of America",City of Miami;Miami-Dade Transit,bus_stop,SW 3rd Av & SW 20th Rd,-80.2032673,25.7586206
Southwest 7th Street & Southwest 5th Avenue,Miami,33130,Southwest 7th Street,"Southwest 7th Street, Miami, FL 33130, United States of America",Miami-Dade Transit,bus_stop,SW 7th St & SW 5th Av,-80.2021303,25.7671821
Southwest 2nd Avenue & Southwest 3rd Street,Miami,33129,Southwest 2nd Avenue,"Southwest 2nd Avenue, Miami, FL 33129, United States of America",City of Miami;Miami-Dade Transit,bus_stop,SW 2nd Av & SW 3rd St,-80.197497,25.7712617
Southeast 1st Street & Southeast 1st Avenue,Miami,33131,Southeast 1st Street,"Southeast 1st Street, Miami, FL 33131, United States of America",Broward County Transit;City of Miami;Miami-Dade Transit,bus_stop,SE 1st St & SE 1st Av,-80.1914598,25.7733174
Brickell Avenue & 2127 Block,Miami,33129,Brickell Avenue,"Brickell Avenue, Miami, FL 33129, United States of America",City of Miami;Miami-Dade Transit,bus_stop,Brickell Av & 2127 Blk,-80.2002396,25.7527229
Southwest 1st Avenue & Southwest 1st Street,Miami,33131,Southwest 1st Avenue,"Southwest 1st Avenue, Miami, FL 33131, United States of America",Miami-Dade Transit,bus_stop,SW 1st Av & SW 1st St,-80.1956208,25.7729874
Southwest 3rd Avenue & Southwest 21st Road,Miami,33145,Southwest 3rd Avenue,"Southwest 3rd Avenue, Miami, FL 33145, United States of America",City of Miami,bus_stop,SW 3rd Av & SW 21st Rd,-80.204374,25.758189
Southwest 2nd Street & Southwest 2nd Avenue,Miami,33130,Southwest 2nd Street,"Southwest 2nd Street, Miami, FL 33130, United States of America",Miami-Dade Transit,bus_stop,SW 2nd St & SW 2nd Av,-80.1978951,25.7723107
Southeast 1st Street & Southeast 3rd Avenue,Miami,33131,Southeast 1st Street,"Southeast 1st Street, Miami, FL 33131, United States of America",Miami-Dade Transit,bus_stop,SE 1st St & SE 3rd Av,-80.1887232,25.7734015
Southwest 1st Street & Southwest 1st Court,Miami,33135,Southwest 1st Street,"Southwest 1st Street, Miami, FL 33135, United States of America",City of Miami;Miami-Dade Transit,bus_stop,SW 1st St & SW 1st Ct,-80.1966427,25.7731524
Southeast 1st Avenue & East Flagler Street,Miami,33131,Southeast 1st Avenue,"Southeast 1st Avenue, Miami, FL 33131, United States of America",Broward County Transit;Miami-Dade Transit,bus_stop,SE 1st Av & E Flagler St,-80.1918563,25.7740527
Southwest 1st Avenue & Southwest 1st Street,Miami,33131,Southwest 1st Avenue,"Southwest 1st Avenue, Miami, FL 33131, United States of America",Broward County Transit;Miami-Dade Transit,bus_stop,SW 1st Av & SW 1st St,-80.1956608,25.7735528
Southwest 3rd Avenue & Southwest 22nd Road,Miami,33145,Southwest 3rd Avenue,"Southwest 3rd Avenue, Miami, FL 33145, United States of America",City of Miami,bus_stop,SW 3rd Av & SW 22nd Rd,-80.204885,25.7575
Brickell Avenue & 2451 Block,Miami,33129,Brickell Avenue,"Brickell Avenue, Miami, FL 33129, United States of America",City of Miami;Miami-Dade Transit,bus_stop,Brickell Av & 2451 Blk,-80.2012051,25.752384
Downtown Metrobus Terminal,Miami,33131,West Flagler Street,"West Flagler Street, Miami, FL 33131, United States of America",Miami-Dade Transit,bus_stop,Downtown Terminal,-80.1959132,25.773776
Downtown Metrobus Terminal,Miami,33131,Southwest 1st Avenue,"Southwest 1st Avenue, Miami, FL 33131, United States of America",Miami-Dade Transit,bus_stop,Downtown Terminal,-80.1956879,25.7739106
Southwest 8th Street & Southwest 7th Avenue,Miami,33130,Southwest 8th Street,"Southwest 8th Street, Miami, FL 33130, United States of America",Miami-Dade Transit,bus_stop,SW 8th St & SW 7th Av,-80.2053863,25.7659832
Northwest 1st Avenue & West Flagler Street,Miami,33128,Northwest 1st Avenue,"Northwest 1st Avenue, Miami, FL 33128, United States of America",Miami-Dade Transit,bus_stop,NW 1st Av & W Flagler St,-80.1956581,25.7744458
Northeast 1st Avenue & Northeast 1st Street,Miami,33132,Northeast 1st Avenue,"Northeast 1st Avenue, Miami, FL 33132, United States of America",Miami-Dade Transit,bus_stop,NE 1st Av & NE 1st St,-80.1919084,25.7750608
Brickell Avenue & 2451 Block,Miami,33129,Brickell Avenue,"Brickell Avenue, Miami, FL 33129, United States of America",City of Miami;Miami-Dade Transit,bus_stop,Brickell Av & 2451 Blk,-80.2016779,25.7517149
West Flagler Street & West 2nd Avenue,Miami,33131,West Flagler Street,"West Flagler Street, Miami, FL 33131, United States of America",Miami-Dade Transit,bus_stop,W Flagler St & W 2nd Avenue,-80.1973779,25.774125
Northeast 1st Street & Northeast 1st Avenue,Miami,33132,Northeast 1st Street,"Northeast 1st Street, Miami, FL 33132, United States of America",Broward County Transit;City of Miami;Miami-Dade Transit,bus_stop,NE 1st St & NE 1st Av,-80.1923934,25.7752113
Southwest 3rd Avenue & Southwest 23rd Road,Miami,33145,Southwest 3rd Avenue,"Southwest 3rd Avenue, Miami, FL 33145, United States of America",City of Miami,bus_stop,SW 3rd Av & SW 23rd Rd,-80.2059287,25.7571421
Northwest 1st Street & North Miami Avenue,Miami,33131,Northwest 1st Street,"Northwest 1st Street, Miami, FL 33131, United States of America",Broward County Transit;Miami-Dade Transit,bus_stop,NW 1st St & N Miami Av,-80.1939775,25.7751538
Southwest 3rd Avenue & Southwest 24th Road,Miami,33145,Southwest 3rd Avenue,"Southwest 3rd Avenue, Miami, FL 33145, United States of America",City of Miami;Miami-Dade Transit,bus_stop,SW 3rd Av & SW 24th Rd,-80.206052,25.756697
Southwest 7th Street & Southwest 7th Avenue,Miami,33130,Southwest 7th Street,"Southwest 7th Street, Miami, FL 33130, United States of America",Miami-Dade Transit,bus_stop,SW 7th St & SW 7th Av,-80.2060985,25.7670653
Northwest 1st Avenue & Northwest 1st Street,Miami,33128,Northwest 1st Avenue,"Northwest 1st Avenue, Miami, FL 33128, United States of America",Miami-Dade Transit,bus_stop,NW 1st Av & NW 1st St,-80.1953673,25.7754909
Stephen P. Clark Center,Miami,33128,Northwest 1st Street,"Northwest 1st Street, Miami, FL 33128, United States of America",City of Miami;Miami-Dade Transit,bus_stop,Stephen P. Clark Center,-80.1972559,25.7750739
Stephen P. Clark Center,Miami,33128,Northwest 1st Street,"Northwest 1st Street, Miami, FL 33128, United States of America",Miami-Dade Transit,bus_stop,Stephen P. Clark Center,-80.1974259,25.7750724
Brickell Avenue & Southeast 25th Road,Miami,33129,Brickell Avenue,"Brickell Avenue, Miami, FL 33129, United States of America",Miami-Dade Transit,bus_stop,Brickell Av & SE 25th Rd,-80.202725,25.7513253
Brickell Avenue & Southeast 25th Road,Miami,33129,Brickell Avenue,"Brickell Avenue, Miami, FL 33129, United States of America",City of Miami;Miami-Dade Transit,bus_stop,Brickell Av & SE 25th Rd,-80.2026613,25.7510451
Northeast 1st Avenue & Northeast 2nd Street,Miami,33132,Northeast 1st Avenue,"Northeast 1st Avenue, Miami, FL 33132, United States of America",Miami-Dade Transit,bus_stop,NE 1st Av & NE 2nd St,-80.1919536,25.7764347
Southwest 7th Street & Southwest 8th Avenue,Miami,33130,Southwest 7th Street,"Southwest 7th Street, Miami, FL 33130, United States of America",Miami-Dade Transit,bus_stop,SW 7th St & SW 8th Av,-80.2072126,25.7670369
Southwest 8th Street & Southwest 8th Avenue,Miami,33130,Southwest 8th Street,"Southwest 8th Street, Miami, FL 33130, United States of America",Miami-Dade Transit,bus_stop,SW 8th St & SW 8th Av,-80.2076519,25.7659113
Southwest 3rd Avenue & Southwest 25th Road,Miami,33145,Southwest 3rd Avenue,"Southwest 3rd Avenue, Miami, FL 33145, United States of America",Miami-Dade Transit,bus_stop,SW 3rd Av & SW 25th Rd,-80.2075928,25.7559957
Biscayne Boulevard & Northeast 2nd Street,Miami,33132,Biscayne Boulevard,"Biscayne Boulevard, Miami, FL 33132, United States of America",City of Miami;Miami-Dade Transit,bus_stop,Biscayne Bd & NE 2nd St,-80.1875155,25.7766059
Northeast 3rd Street & Northeast 2nd Avenue,Miami,33132,Northeast 3rd Street,"Northeast 3rd Street, Miami, FL 33132, United States of America",Miami-Dade Transit,bus_stop,NE 3rd St & NE 2nd Av,-80.1899781,25.7772203
Northwest 2nd Avenue & Northwest 2nd Street,Miami,33128,Northwest 2nd Avenue,"Northwest 2nd Avenue, Miami, FL 33128, United States of America",Miami-Dade Transit,bus_stop,NW 2nd Av & NW 2nd St,-80.1977261,25.7763764
Northwest 2nd Avenue & Northwest 2nd Street,Miami,33128,Northwest 2nd Avenue,"Northwest 2nd Avenue, Miami, FL 33128, United States of America",Miami-Dade Transit,bus_stop,NW 2nd Av & NW 2nd St,-80.1978728,25.7764005
Rickenbacker Causeway & Hobie Cat Beach,Miami,33129,Rickenbacker Causeway,"Rickenbacker Causeway, Miami, FL 33129, United States of America",Miami-Dade Transit,bus_stop,Rickenbacker Cy & Hobie Cat Beach,-80.1951608,25.7461632
Northwest 3rd Street & Northwest 2nd Avenue,Miami,33128,Northwest 3rd Street,"Northwest 3rd Street, Miami, FL 33128, United States of America",Miami-Dade Transit,bus_stop,NW 3rd St & NW 2nd Av,-80.1969522,25.7768846
Northeast 1st Avenue & Northeast 4th Street,Miami,33132,Northeast 1st Avenue,"Northeast 1st Avenue, Miami, FL 33132, United States of America",Miami-Dade Transit,bus_stop,NE 1st Av & NE 4th St,-80.1919274,25.7777059
Rickenbacker Causeway & Restrooms,Miami,33129,Rickenbacker Trail,"Rickenbacker Trail, Miami, FL 33129, United States of America",Miami-Dade Transit,bus_stop,Rickenbacker Cy & Restrooms,-80.1941925,25.7458298
Southwest 8th Street & Southwest 9th Avenue,Miami,33130,Southwest 8th Street,"Southwest 8th Street, Miami, FL 33130, United States of America",Miami-Dade Transit,bus_stop,SW 8th St & SW 9th Av,-80.2090301,25.7658745
Biscayne Boulevard & Northeast 3rd Street,Miami,33132,Biscayne Boulevard,"Biscayne Boulevard, Miami, FL 33132, United States of America",Miami-Dade Transit,bus_stop,Biscayne Bd & NE 3rd St,-80.1884913,25.7775933
Northeast 2nd Avenue & Northeast 4th Street,Miami,33137,Northeast 2nd Avenue,"Northeast 2nd Avenue, Miami, FL 33137, United States of America",City of Miami;Miami-Dade Transit,bus_stop,NE 2nd Av & NE 4th St,-80.1904861,25.7778606
North Miami Avenue & North 4th Street,Miami,33132,North Miami Avenue,"North Miami Avenue, Miami, FL 33132, United States of America",Miami-Dade Transit,bus_stop,N Miami Av & N 4th St,-80.1938142,25.7778056
Southwest 3rd Avenue & Southwest 26th Road,Miami,33145,Southwest 3rd Avenue,"Southwest 3rd Avenue, Miami, FL 33145, United States of America",City of Miami;Miami-Dade Transit,bus_stop,SW 3rd Av & SW 26th Rd,-80.2083322,25.7551266
Southwest 3rd Avenue & Southwest 26th Road,Miami,33145,Southwest 3rd Avenue,"Southwest 3rd Avenue, Miami, FL 33145, United States of America",City of Miami;Miami-Dade Transit,bus_stop,SW 3rd Av & SW 26th Rd,-80.208535,25.7553488
West Flagler Street & Northwest 6th Avenue,Miami,33128,West Flagler Street,"West Flagler Street, Miami, FL 33128, United States of America",Miami-Dade Transit,bus_stop,W Flagler St & NW 6th Av,-80.2040293,25.7739733
Northwest 1st Avenue & Northwest 4th Street,Miami,33128,Northwest 1st Avenue,"Northwest 1st Avenue, Miami, FL 33128, United States of America",Broward County Transit;Miami-Dade Transit,bus_stop,NW 1st Av & NW 4th St,-80.195394,25.7780139
Rickenbacker Causeway & Hobie Cat Beach,Miami,33129,Rickenbacker Trail,"Rickenbacker Trail, Miami, FL 33129, United States of America",Miami-Dade Transit,bus_stop,Rickenbacker Cy & Hobie Cat Beach,-80.1973857,25.7458431
Biscayne Boulevard & Northeast 4th Street,Miami,33132,Biscayne Boulevard,"Biscayne Boulevard, Miami, FL 33132, United States of America",City of Miami;Miami-Dade Transit,bus_stop,Biscayne Bd & NE 4th St,-80.1878948,25.777971
Southwest 7th Street & Southwest 9th Avenue,Miami,33130,Southwest 7th Street,"Southwest 7th Street, Miami, FL 33130, United States of America",Miami-Dade Transit,bus_stop,SW 7th St & SW 9th Av,-80.2093028,25.7669695
Northwest 2nd Avenue & Northwest 3rd Street,Miami,33128,Northwest 2nd Avenue,"Northwest 2nd Avenue, Miami, FL 33128, United States of America",Broward County Transit;Miami-Dade Transit,bus_stop,NW 2nd Av & NW 3rd St,-80.1977502,25.7776062
Northwest 2nd Avenue & Northwest 4th Street,Miami,33128,Northwest 2nd Avenue,"Northwest 2nd Avenue, Miami, FL 33128, United States of America",Miami-Dade Transit,bus_stop,NW 2nd Av & NW 4th St,-80.197975,25.7780004
Biscayne Boulevard & Northeast 5th Street,Miami,33132,Biscayne Boulevard,"Biscayne Boulevard, Miami, FL 33132, United States of America",Miami-Dade Transit,bus_stop,Biscayne Bd & NE 5th St,-80.1888633,25.7788402
Northeast 2nd Avenue & Northeast 5th Street,Miami,33132,Northeast 5th Street,"Northeast 5th Street, Miami, FL 33132, United States of America",City of Miami;Miami-Dade Transit,bus_stop,NE 2nd Av & NE 5th St,-80.1905301,25.7791728
West Flagler Street & Northwest 7th Avenue,Miami,33128,West Flagler Street,"West Flagler Street, Miami, FL 33128, United States of America",Miami-Dade Transit,bus_stop,W Flagler St & NW 7th Av,-80.2059067,25.7738543
Northwest 5th Street & Northwest 2nd Avenue,Miami,33128,Northwest 5th Street,"Northwest 5th Street, Miami, FL 33128, United States of America",Miami-Dade Transit,bus_stop,NW 5th St & NW 2nd Av,-80.1973726,25.7787609
Southwest 3rd Avenue & Southwest 28th Road,Miami,33145,Southwest 3rd Avenue,"Southwest 3rd Avenue, Miami, FL 33145, United States of America",City of Miami,bus_stop,SW 3rd Av & SW 28th Rd,-80.2096812,25.7542026
Southwest 1st Street & Southwest 8th Avenue,Miami,33128,Southwest 1st Street,"Southwest 1st Street, Miami, FL 33128, United States of America",Miami-Dade Transit,bus_stop,SW 1st St & SW 8th Av,-80.2074624,25.7726885
Southwest 8th Street & Southwest 10th Avenue,Miami,33130,Southwest 8th Street,"Southwest 8th Street, Miami, FL 33130, United States of America",Miami-Dade Transit,bus_stop,SW 8th St & SW 10th Av,-80.2112448,25.7658664
Northeast 1st Avenue & Northeast 6th Street,Miami,33132,Northeast 1st Avenue,"Northeast 1st Avenue, Miami, FL 33132, United States of America",Miami-Dade Transit,bus_stop,NE 1st Av & NE 6th St,-80.1920726,25.7797999
Southwest 7th Street & Southwest 10th Avenue,Miami,33130,Southwest 7th Street,"Southwest 7th Street, Miami, FL 33130, United States of America",Miami-Dade Transit,bus_stop,SW 7th St & SW 10th Av,-80.2110511,25.7669109
Northwest 2nd Avenue & Northwest 5th Street,Miami,33128,Northwest 2nd Avenue,"Northwest 2nd Avenue, Miami, FL 33128, United States of America",Broward County Transit;Miami-Dade Transit,bus_stop,NW 2nd Av & NW 5th St,-80.1978259,25.7790853
Northwest 2nd Avenue & Northwest 5th Street,Miami,33128,Northwest 2nd Avenue,"Northwest 2nd Avenue, Miami, FL 33128, United States of America",Miami-Dade Transit,bus_stop,NW 2nd Av & NW 5th St,-80.1979629,25.7790926
Northwest 1st Avenue & Northwest 6th Street,Miami,33128,Northwest 1st Avenue,"Northwest 1st Avenue, Miami, FL 33128, United States of America",Miami-Dade Transit,bus_stop,NW 1st Av & NW 6th St,-80.1952345,25.7797372
Northeast 6th Street & Northeast 1st Avenue,Miami,33132,Northeast 6th Street,"Northeast 6th Street, Miami, FL 33132, United States of America",Miami-Dade Transit,bus_stop,NE 6th St & NE 1st Av,-80.192568,25.7800271
Northwest 5th Street & Northwest 3rd Avenue,Miami,33128,Northwest 5th Street,"Northwest 5th Street, Miami, FL 33128, United States of America",Miami-Dade Transit,bus_stop,NW 5th St & NW 3rd Av,-80.1993624,25.7787216
Northwest 5th Street & Northwest 3rd Court,Miami,33128,Northwest 5th Street,"Northwest 5th Street, Miami, FL 33128, United States of America",Miami-Dade Transit,bus_stop,NW 5th St & NW 3rd Ct,-80.2003484,25.7786933
Biscayne Boulevard & Northeast 6th Street,Miami,33132,Biscayne Boulevard,"Biscayne Boulevard, Miami, FL 33132, United States of America",Miami-Dade Transit,bus_stop,Biscayne Bd & NE 6th St,-80.1893005,25.7802492
Northwest 6th Street & Northwest 1st Avenue,Miami,33132,Northwest 6th Street,"Northwest 6th Street, Miami, FL 33132, United States of America",Miami-Dade Transit,bus_stop,NW 6th St & NW 1st Av,-80.1962277,25.7799544
Northeast 2nd Avenue & Northeast 7th Street,Miami,33137,Northeast 2nd Avenue,"Northeast 2nd Avenue, Miami, FL 33137, United States of America",Miami-Dade Transit,bus_stop,NE 2nd Av & NE 7th St,-80.1905455,25.7806833
Northwest 5th Street & Northwest 4th Avenue,Miami,33128,Northwest 5th Street,"Northwest 5th Street, Miami, FL 33128, United States of America",Miami-Dade Transit,bus_stop,NW 5th St & NW 4th Av,-80.2013959,25.7786619
Northwest 6th Street & Northwest 2nd Avenue,Miami,33128,Northwest 6th Street,"Northwest 6th Street, Miami, FL 33128, United States of America",Miami-Dade Transit,bus_stop,NW 6th St & NW 2nd Av,-80.1982734,25.7798804
Southwest 1st Street & Southwest 9th Avenue,Miami,33135,Southwest 1st Street,"Southwest 1st Street, Miami, FL 33135, United States of America",Miami-Dade Transit,bus_stop,SW 1st St & SW 9th Av,-80.2091218,25.7726389
Northwest 2nd Avenue & Northwest 6th Street,Miami,33136,Northwest 2nd Avenue,"Northwest 2nd Avenue, Miami, FL 33136, United States of America",Miami-Dade Transit,bus_stop,NW 2nd Av & NW 6th St,-80.1980402,25.7800781
Southwest 3rd Avenue & Southwest 29th Road,Miami,33145,Southwest 3rd Avenue,"Southwest 3rd Avenue, Miami, FL 33145, United States of America",City of Miami;Miami-Dade Transit,bus_stop,SW 3rd Av & SW 29th Rd,-80.2110835,25.7536098
West Flagler Street & Northwest 8th Avenue,Miami,33128,West Flagler Street,"West Flagler Street, Miami, FL 33128, United States of America",Miami-Dade Transit,bus_stop,W Flagler St & NW 8th Av,-80.2083551,25.7737756
Biscayne Boulevard & Northeast 7th Street,Miami,33132,Biscayne Boulevard,"Biscayne Boulevard, Miami, FL 33132, United States of America",Miami-Dade Transit,bus_stop,Biscayne Bd & NE 7th St,-80.1891204,25.7810182
Southwest 3rd Avenue & Southwest 30th Road,Miami,33145,Southwest 3rd Avenue,"Southwest 3rd Avenue, Miami, FL 33145, United States of America",Miami-Dade Transit,bus_stop,SW 3rd Av & SW 30th Rd,-80.2113985,25.7530065
Northwest 6th Street & Northwest 4th Avenue,Miami,33136,Northwest 6th Street,"Northwest 6th Street, Miami, FL 33136, United States of America",Miami-Dade Transit,bus_stop,NW 6th St & NW 4th Av,-80.2010222,25.7797759
Northwest 5th Street & Northwest 6th Avenue,Miami,33128,Northwest 5th Street,"Northwest 5th Street, Miami, FL 33128, United States of America",Miami-Dade Transit,bus_stop,NW 5th St & NW 6th Av,-80.203654,25.7785837
Southwest 1st Street & Southwest 10th Avenue,Miami,33135,Southwest 1st Street,"Southwest 1st Street, Miami, FL 33135, United States of America",Miami-Dade Transit,bus_stop,SW 1st St & SW 10th Av,-80.2108454,25.7725629
Northwest 8th Street & Northwest 1st Avenue,Miami,33136,Northwest 8th Street,"Northwest 8th Street, Miami, FL 33136, United States of America",Broward County Transit;Miami-Dade Transit,bus_stop,NW 8th St & NW 1st Av,-80.1961003,25.7817157
Northwest 8th Street & Northwest 1st Court,Miami,33136,Northwest 8th Street,"Northwest 8th Street, Miami, FL 33136, United States of America",Miami-Dade Transit,bus_stop,NW 8th St & NW 1st Av,-80.1966399,25.7816939
Northwest 2nd Avenue & Northwest 8th Street,Miami,33136,Northwest 2nd Avenue,"Northwest 2nd Avenue, Miami, FL 33136, United States of America",Miami-Dade Transit,bus_stop,NW 2nd Av & NW 8th St,-80.1980679,25.7814507
Northwest 6th Street & Northwest 5th Avenue,Miami,33136,Northwest 6th Street,"Northwest 6th Street, Miami, FL 33136, United States of America",Miami-Dade Transit,bus_stop,NW 6th St & NW 5th Av,-80.2027028,25.7797271
Northwest 2nd Avenue & Northwest 8th Street,Miami,33136,Northwest 2nd Avenue,"Northwest 2nd Avenue, Miami, FL 33136, United States of America",Broward County Transit;Miami-Dade Transit,bus_stop,NW 2nd Av & NW 8th St,-80.197883,25.7815104
Southwest 8th Street & Southwest 12th Avenue,Miami,33130,Southwest 8th Street,"Southwest 8th Street, Miami, FL 33130, United States of America",Miami-Dade Transit,bus_stop,SW 8th St & SW 12th Av,-80.2141221,25.7657926
Northwest 5th Street & Northwest 7th Avenue,Miami,33128,Northwest 5th Street,"Northwest 5th Street, Miami, FL 33128, United States of America",Miami-Dade Transit,bus_stop,NW 5th St & NW 7th Av,-80.2053358,25.7785481
Southwest 7th Street & Southwest 12th Avenue,Miami,33130,Southwest 7th Street,"Southwest 7th Street, Miami, FL 33130, United States of America",Miami-Dade Transit,bus_stop,SW 7th St & SW 12th Av,-80.214258,25.7668131
Biscayne Boulevard & Northeast 9th Street,Miami,33132,Biscayne Boulevard,"Biscayne Boulevard, Miami, FL 33132, United States of America",Miami-Dade Transit,bus_stop,Biscayne Bd & NE 9th St,-80.1896731,25.7825935
Biscayne Boulevard & Northeast 9th Street,Miami,33132,Biscayne Boulevard,"Biscayne Boulevard, Miami, FL 33132, United States of America",Miami-Dade Transit,bus_stop,Biscayne Bd & NE 9th St,-80.1892134,25.7826508
Southwest 3rd Avenue & Southwest 31st Road,Miami,33145,Southwest 3rd Avenue,"Southwest 3rd Avenue, Miami, FL 33145, United States of America",Miami-Dade Transit,bus_stop,SW 3rd Av & SW 31st Rd,-80.2128545,25.7523768
Northwest 6th Street & Northwest 6th Avenue,Miami,33136,Northwest 6th Street,"Northwest 6th Street, Miami, FL 33136, United States of America",Miami-Dade Transit,bus_stop,NW 6th St & NW 6th Av,-80.2043933,25.7796775
Northeast 2nd Avenue & Northeast 9th Street,Miami,33137,Northeast 2nd Avenue,"Northeast 2nd Avenue, Miami, FL 33137, United States of America",Miami-Dade Transit,bus_stop,NE 2nd Av & NE 9th St,-80.1906545,25.7831222
West Flagler Street & Northwest 10th Avenue,Miami,33128,West Flagler Street,"West Flagler Street, Miami, FL 33128, United States of America",Miami-Dade Transit,bus_stop,W Flagler St & NW 10th Av,-80.2116781,25.7736847
Southwest 8th Street & Southwest 12th Court,Miami,33130,Southwest 8th Street,"Southwest 8th Street, Miami, FL 33130, United States of America",Miami-Dade Transit,bus_stop,SW 8th St & SW 12th Ct,-80.215545,25.7657541
Northwest 9th Street & Northwest 2nd Court,Miami,33136,Northwest 9th Street,"Northwest 9th Street, Miami, FL 33136, United States of America",Miami-Dade Transit,bus_stop,NW 9th St & NW 2nd Ct,-80.1990403,25.7826113
Northwest 9th Street & Northwest 2nd Court,Miami,33136,Northwest 9th Street,"Northwest 9th Street, Miami, FL 33136, United States of America",Miami-Dade Transit,bus_stop,NW 9th St & NW 2nd Ct,-80.1987643,25.7827267
Vizcaya Station,Miami,33129,M-Path,"M-Path, Miami, FL 33129, United States of America",Miami-Dade Transit,bus_stop,Vizcaya Station,-80.212169,25.7496889
Southwest 22nd Street & Southwest 32nd Road,Miami,33129,Southwest 22nd Street,"Southwest 22nd Street, Miami, FL 33129, United States of America",Miami-Dade Transit,bus_stop,SW 22nd Av & SW 32nd Av,-80.2130733,25.7510319
Northwest 6th Street & Northwest 7th Avenue,Miami,33136,Northwest 6th Street,"Northwest 6th Street, Miami, FL 33136, United States of America",Miami-Dade Transit,bus_stop,NW 6th St & NW 7th Av,-80.2059812,25.7796309
Vizcaya Station,Miami,33129,M-Path,"M-Path, Miami, FL 33129, United States of America",Miami-Dade Transit,bus_stop,Vizcaya Station,-80.2123632,25.7496186
Northeast 1st Avenue & Northeast 10th Street,Miami,33132,Northeast 1st Avenue,"Northeast 1st Avenue, Miami, FL 33132, United States of America",Miami-Dade Transit,bus_stop,NE 1st Av & NE 10th St,-80.1921969,25.7840569
Vizcaya Station,Miami,33129,M-Path,"M-Path, Miami, FL 33129, United States of America",Miami-Dade Transit,bus_stop,Vizcaya Station,-80.2125345,25.7495567
Northwest 4th Street & Northwest 9th Avenue,Miami,33125,Northwest 4th Street,"Northwest 4th Street, Miami, FL 33125, United States of America",Miami-Dade Transit,bus_stop,NW 4th St & NW 9th Av,-80.2093095,25.7776376
Vizcaya Station,Miami,33129,M-Path,"M-Path, Miami, FL 33129, United States of America",Miami-Dade Transit,bus_stop,Vizcaya Station,-80.2127217,25.749489
Southwest 1st Street & Southwest 12th Avenue,Miami,33135,Southwest 1st Street,"Southwest 1st Street, Miami, FL 33135, United States of America",Miami-Dade Transit,bus_stop,SW 1st St & SW 12th Av,-80.2136943,25.7724748
Northwest 4th Street & Northwest 9th Avenue,Miami,33125,Northwest 4th Street,"Northwest 4th Street, Miami, FL 33125, United States of America",Miami-Dade Transit,bus_stop,NW 4th St & NW 9th Av,-80.2097601,25.7774822
Northwest 2nd Avenue & Northwest 10th Street,Miami,33136,Northwest 10th Street,"Northwest 10th Street, Miami, FL 33136, United States of America",Miami-Dade Transit,bus_stop,NW 2nd Av & NW 10th St,-80.19816,25.7837573
Northwest 3rd Avenue & Northwest 10th Street,Miami,33127,Northwest 3rd Avenue,"Northwest 3rd Avenue, Miami, FL 33127, United States of America",Miami-Dade Transit,bus_stop,NW 3rd Av & NW 10th St,-80.1997929,25.7834407
Biscayne Boulevard & Northeast 11th Street,Miami,33132,Biscayne Boulevard,"Biscayne Boulevard, Miami, FL 33132, United States of America",Miami-Dade Transit,bus_stop,Biscayne Bd & NE 11th St,-80.1896111,25.7845457
Northwest 2nd Avenue & Northwest 10th Street,Miami,33136,Northwest 2nd Avenue,"Northwest 2nd Avenue, Miami, FL 33136, United States of America",Miami-Dade Transit,bus_stop,NW 2nd Av & NW 10th St,-80.1980059,25.7839331
Rickenbacker Causeway & 3301 Block Rickenbacker Fish Company,Miami,33131,Rickenbacker Trail,"Rickenbacker Trail, Miami, FL 33131, United States of America",Miami-Dade Transit,bus_stop,Rickenbacker Cy & 3301 Blk,-80.174891,25.7445971
Biscayne Boulevard & Northeast 11th Street,Miami,33132,Biscayne Boulevard,"Biscayne Boulevard, Miami, FL 33132, United States of America",Miami-Dade Transit,bus_stop,Biscayne Bd & NE 11th St,-80.1891721,25.7845662
Rickenbacker Causeway & 3301 Block Rickenbacker Fish Company,Miami,33131,Rickenbacker Causeway,"Rickenbacker Causeway, Miami, FL 33131, United States of America",Miami-Dade Transit,bus_stop,Rickenbacker Cy & 3301 Blk,-80.1741611,25.7445149
West Flagler Street & West 12th Avenue,Miami,33128,West Flagler Street,"West Flagler Street, Miami, FL 33128, United States of America",Miami-Dade Transit,bus_stop,W Flagler St & W 12th Av,-80.2144285,25.7736063
Northwest 4th Street & Northwest 10th Avenue,Miami,33125,Northwest 4th Street,"Northwest 4th Street, Miami, FL 33125, United States of America",Miami-Dade Transit,bus_stop,NW 4th St & NW 10th Av,-80.2113172,25.7775613
Southwest 8th Street & Southwest 13th Court,Miami,33130,Southwest 8th Street,"Southwest 8th Street, Miami, FL 33130, United States of America",Miami-Dade Transit,bus_stop,SW 8th St & SW 13th Ct,-80.2176834,25.7656966
Northwest 10th Avenue & Northwest 4th Street,Miami,33128,Northwest 10th Avenue,"Northwest 10th Avenue, Miami, FL 33128, United States of America",Miami-Dade Transit,bus_stop,NW 10th Av & NW 4th St,-80.2116276,25.7776563
Northwest 3rd Avenue & Northwest 11th Street,Miami,33136,Northwest 3rd Avenue,"Northwest 3rd Avenue, Miami, FL 33136, United States of America",Miami-Dade Transit,bus_stop,NW 3rd Av & NW 11th St,-80.1997094,25.7847705
Northwest 3rd Avenue & Northwest 11th Street,Miami,33136,Northwest 3rd Avenue,"Northwest 3rd Avenue, Miami, FL 33136, United States of America",Miami-Dade Transit,bus_stop,NW 3rd Av & NW 11th St,-80.199845,25.7847645
Southwest 1st Street & Southwest 13th Avenue,Miami,33135,Southwest 1st Street,"Southwest 1st Street, Miami, FL 33135, United States of America",Miami-Dade Transit,bus_stop,SW 1st St & SW 13th Av,-80.2160593,25.7724182
Southwest 13th Avenue & Southwest 22nd Street,Miami,33145,Southwest 13th Avenue,"Southwest 13th Avenue, Miami, FL 33145, United States of America",Miami-Dade Transit,bus_stop,SW 13th Av & SW 22nd St,-80.216084,25.750719
Northwest 10th Avenue & Northwest 5th Street,Miami,33128,Northwest 10th Avenue,"Northwest 10th Avenue, Miami, FL 33128, United States of America",Miami-Dade Transit,bus_stop,NW 10th Av & NW 5th St,-80.2115188,25.7786547
Northwest 10th Avenue & Northwest 5th Street,Miami,33128,Northwest 10th Avenue,"Northwest 10th Avenue, Miami, FL 33128, United States of America",Miami-Dade Transit,bus_stop,NW 10th Av & NW 5th St,-80.2116534,25.7785578
Northwest 1st Place & Northwest 12th Street,Miami,33136,Northwest 1st Place,"Northwest 1st Place, Miami, FL 33136, United States of America",Miami-Dade Transit,bus_stop,NW 1st Pl & NW 12th St,-80.1979657,25.7857361
Southwest 22nd Street & Southwest 13th Avenue,Miami,33129,Southwest 22nd Street,"Southwest 22nd Street, Miami, FL 33129, United States of America",Miami-Dade Transit,bus_stop,SW 22nd Av & SW 13th Av,-80.2165707,25.7511456
Southwest 22nd Street & Southwest 13th Avenue,Miami,33129,Southwest 22nd Street,"Southwest 22nd Street, Miami, FL 33129, United States of America",Miami-Dade Transit,bus_stop,SW 22nd Av & SW 13th Av,-80.216448,25.750893
Biscayne Boulevard & Northeast 13th Street,Miami,33132,Biscayne Boulevard,"Biscayne Boulevard, Miami, FL 33132, United States of America",Miami-Dade Transit,bus_stop,Biscayne Bd & NE 13th St,-80.1892217,25.7866417
Southwest 8th Street & Southwest 15th Avenue,Miami,33130,Southwest 8th Street,"Southwest 8th Street, Miami, FL 33130, United States of America",Miami-Dade Transit,bus_stop,SW 8th St & SW 15th Av,-80.2193835,25.7656455
West Flagler Street & Northwest 13th Avenue,Miami,33128,West Flagler Street,"West Flagler Street, Miami, FL 33128, United States of America",Miami-Dade Transit,bus_stop,W Flagler St & NW 13th Av,-80.2165969,25.7735351
Northwest 1st Place & Northwest 13th Street,Miami,33136,Northwest 1st Place,"Northwest 1st Place, Miami, FL 33136, United States of America",Miami-Dade Transit,bus_stop,NW 1st Pl & NW 13th St,-80.1978654,25.7866876
Northeast 13th Street & North Bayshore Drive,Miami,33132,MacArthur Causeway Path,"MacArthur Causeway Path, Miami, FL 33132, United States of America",Miami-Dade Transit,bus_stop,NE 13th St & N Bayshore Dr,-80.187652,25.7871461
Northwest 3rd Avenue & Northwest 13th Street,Miami,33136,Northwest 3rd Avenue,"Northwest 3rd Avenue, Miami, FL 33136, United States of America",Miami-Dade Transit,bus_stop,NW 3rd Av & NW 13th St,-80.1999439,25.7864866
Southwest 1st Street & Southwest 14th Avenue,Miami,33135,Southwest 1st Street,"Southwest 1st Street, Miami, FL 33135, United States of America",Miami-Dade Transit,bus_stop,SW 1st St & SW 14th Av,-80.217831,25.7723648
Northwest 3rd Avenue & Northwest 13th Street,Miami,33136,Northwest 3rd Avenue,"Northwest 3rd Avenue, Miami, FL 33136, United States of America",Miami-Dade Transit,bus_stop,NW 3rd Av & NW 13th St,-80.1997937,25.786557
Biscayne Boulevard & Northeast 13th Street,Miami,33132,Biscayne Boulevard,"Biscayne Boulevard, Miami, FL 33132, United States of America",Miami-Dade Transit,bus_stop,Biscayne Bd & NE 13th St,-80.1890246,25.7874855
Northwest 1st Place & Northwest 13th Street,Miami,33136,Northwest 1st Place,"Northwest 1st Place, Miami, FL 33136, United States of America",Miami-Dade Transit,bus_stop,NW 1st Pl & NW 13th St,-80.1980154,25.7870703
Northwest 7th Street & Northwest 10th Avenue,Miami,33128,Northwest 7th Street,"Northwest 7th Street, Miami, FL 33128, United States of America",Miami-Dade Transit,bus_stop,NW 7th St & NW 10th Av,-80.2120183,25.7802609
Northwest 7th Street & Northwest 10th Avenue,Miami,33128,Northwest 7th Street,"Northwest 7th Street, Miami, FL 33128, United States of America",Miami-Dade Transit,bus_stop,NW 7th St & NW 10th Av,-80.2120543,25.7804052
Southwest 7th Street & Southwest 16th Avenue,Miami,33130,Southwest 7th Street,"Southwest 7th Street, Miami, FL 33130, United States of America",Miami-Dade Transit,bus_stop,SW 7th St & SW 16th Av,-80.2209373,25.7666054
Northwest 3rd Avenue & Northwest 14th Street,Miami,33136,Northwest 3rd Avenue,"Northwest 3rd Avenue, Miami, FL 33136, United States of America",Miami-Dade Transit,bus_stop,NW 3rd Av & NW 14th St,-80.1999824,25.7876529
Rickenbacker Causeway & Marine Stadium,Miami,33131,Rickenbacker Causeway,"Rickenbacker Causeway, Miami, FL 33131, United States of America",Miami-Dade Transit,bus_stop,Rickenbacker Cy & Marine Stadium,-80.1713498,25.7419848
Southwest 1st Street & Southwest 15th Avenue,Miami,33135,Southwest 1st Street,"Southwest 1st Street, Miami, FL 33135, United States of America",Miami-Dade Transit,bus_stop,SW 1st St & SW 15th Av,-80.2194511,25.7723142
Northwest 7th Street & Northwest 12th Avenue,Miami,33128,Northwest 7th Street,"Northwest 7th Street, Miami, FL 33128, United States of America",Miami-Dade Transit,bus_stop,NW 7th St & NW 12th Av,-80.2139697,25.7801767
MacArthur Causeway & Watson Island,Miami,33132,Parrot Jungle Trail,"Parrot Jungle Trail, Miami, FL 33132, United States of America",Miami-Dade Transit,bus_stop,MacArthur Cy & Watson Island,-80.17587,25.7849291
MacArthur Causeway & Watson Island,Miami,33132,Parrot Jungle Trail,"Parrot Jungle Trail, Miami, FL 33132, United States of America",Miami-Dade Transit,bus_stop,MacArthur Cy & Watson Island,-80.1747398,25.7845058
West Flagler Street & Northwest 15th Avenue,Miami,33128,West Flagler Street,"West Flagler Street, Miami, FL 33128, United States of America",Miami-Dade Transit,bus_stop,W Flagler St & NW 15th Av,-80.2193276,25.773453
Northwest 7th Street & Northwest 12th Avenue,Miami,33128,Northwest 7th Street,"Northwest 7th Street, Miami, FL 33128, United States of America",Miami-Dade Transit,bus_stop,NW 7th St & NW 12th Av,-80.2142893,25.7803397
Omni Terminal / Arsht Metromover,Miami,33132,Northeast 14th Terrace,"Northeast 14th Terrace, Miami, FL 33132, United States of America",Miami-Dade Transit,bus_stop,Omni Terminal,-80.1887128,25.7892412
Omni Terminal / Arsht Metromover,Miami,33132,Northeast 14th Terrace,"Northeast 14th Terrace, Miami, FL 33132, United States of America",Miami-Dade Transit,bus_stop,Omni Terminal,-80.1884955,25.7892509
Omni Terminal / Arsht Metromover,Miami,33132,Northeast 14th Terrace,"Northeast 14th Terrace, Miami, FL 33132, United States of America",Miami-Dade Transit,bus_stop,Omni Terminal,-80.1885773,25.7892787
Omni Terminal / Arsht Metromover,Miami,33132,Northeast 14th Terrace,"Northeast 14th Terrace, Miami, FL 33132, United States of America",Miami-Dade Transit,bus_stop,Omni Terminal,-80.1882783,25.7892545
Omni Terminal / Arsht Metromover,Miami,33132,Northeast 14th Terrace,"Northeast 14th Terrace, Miami, FL 33132, United States of America",Miami-Dade Transit,bus_stop,Omni Terminal,-80.188344,25.7892835
Omni Terminal / Arsht Metromover,Miami,33132,Northeast 14th Terrace,"Northeast 14th Terrace, Miami, FL 33132, United States of America",Miami-Dade Transit,bus_stop,Omni Terminal,-80.1880597,25.7892618
Omni Terminal / Arsht Metromover,Miami,33132,Northeast 14th Terrace,"Northeast 14th Terrace, Miami, FL 33132, United States of America",Miami-Dade Transit,bus_stop,Omni Terminal,-80.1881321,25.7892907
Omni Terminal / Arsht Metromover,Miami,33132,Northeast 14th Terrace,"Northeast 14th Terrace, Miami, FL 33132, United States of America",Miami-Dade Transit,bus_stop,Omni Terminal,-80.1878384,25.7892678
Omni Terminal / Arsht Metromover,Miami,33132,Northeast 14th Terrace,"Northeast 14th Terrace, Miami, FL 33132, United States of America",Miami-Dade Transit,bus_stop,Omni Terminal,-80.1879027,25.7892956
Omni Terminal / Arsht Metromover,Miami,33132,North Bayshore Drive,"North Bayshore Drive, Miami, FL 33132, United States of America",Miami-Dade Transit,bus_stop,Omni Terminal,-80.1876721,25.7893004
Southwest 8th Street & Southwest 17th Avenue,Miami,33130,Southwest 8th Street,"Southwest 8th Street, Miami, FL 33130, United States of America",Miami-Dade Transit,bus_stop,SW 8th St & SW 17th Av,-80.2222808,25.76556
Southwest 7th Street & Southwest 17th Avenue,Miami,33130,Southwest 7th Street,"Southwest 7th Street, Miami, FL 33130, United States of America",Miami-Dade Transit,bus_stop,SW 7th St & SW 17th Av,-80.2222324,25.7665658
Northwest 7th Street & Northwest 13th Avenue,Miami,33128,Northwest 7th Street,"Northwest 7th Street, Miami, FL 33128, United States of America",Miami-Dade Transit,bus_stop,NW 7th St & NW 13th Av,-80.2166628,25.7800861
Southwest 22nd Street & Southwest 17th Avenue,Miami,33145,Southwest 22nd Street,"Southwest 22nd Street, Miami, FL 33145, United States of America",City of Miami;Miami-Dade Transit,bus_stop,SW 22nd Av & SW 17th Av,-80.2215959,25.7507702
Northwest 7th Street & Northwest 13th Avenue,Miami,33128,Northwest 7th Street,"Northwest 7th Street, Miami, FL 33128, United States of America",Miami-Dade Transit,bus_stop,NW 7th St & NW 13th Av,-80.2167632,25.780254
Southwest 1st Street & Southwest 17th Avenue,Miami,33135,Southwest 1st Street,"Southwest 1st Street, Miami, FL 33135, United States of America",Miami-Dade Transit,bus_stop,SW 1st St & SW 17th Av,-80.2221312,25.7722135
MacArthur Causeway & Fountain Street,Miami,33139,MacArthur Causeway,"MacArthur Causeway, Miami, FL 33139, United States of America",Miami-Dade Transit,bus_stop,MacArthur Cy & Fountain St,-80.164412,25.7775089
West Flagler Street & Northwest 16th Avenue,Miami,33135,West Flagler Street,"West Flagler Street, Miami, FL 33135, United States of America",Miami-Dade Transit,bus_stop,W Flagler St & NW 16th Av,-80.2216098,25.7733775
Southwest 22nd Street & Southwest 17th Avenue,Miami,33145,Southwest 22nd Street,"Southwest 22nd Street, Miami, FL 33145, United States of America",City of Miami;Miami-Dade Transit,bus_stop,SW 22nd Av & SW 17th Av,-80.2222763,25.7509842
MacArthur Causeway & Fountain Street,Miami Beach,33139,MacArthur Causeway,"MacArthur Causeway, Miami Beach, FL 33139, United States of America",Miami-Dade Transit,bus_stop,MacArthur Cy & Fountain St,-80.1644341,25.7779454
Southwest 8th Street & Southwest 18th Avenue,Miami,33135,Southwest 8th Street,"Southwest 8th Street, Miami, FL 33135, United States of America",Miami-Dade Transit,bus_stop,SW 8th St & SW 18th Av,-80.224332,25.7655056
Northwest 7th Street & Northwest 14th Avenue,Miami,33128,Northwest 7th Street,"Northwest 7th Street, Miami, FL 33128, United States of America",Miami-Dade Transit,bus_stop,NW 7th St & NW 14th Av,-80.2178358,25.7800389
Northwest 7th Street & Northwest 14th Avenue,Miami,33128,Northwest 7th Street,"Northwest 7th Street, Miami, FL 33128, United States of America",Miami-Dade Transit,bus_stop,NW 7th St & NW 14th Av,-80.2183368,25.7802193
West Flagler Street & Northwest 17th Court,Miami,33135,West Flagler Street,"West Flagler Street, Miami, FL 33135, United States of America",Miami-Dade Transit,bus_stop,W Flagler St & NW 17th Ct,-80.2234958,25.7729436
Southwest 1st Street & Southwest 18th Avenue,Miami,33135,Southwest 1st Street,"Southwest 1st Street, Miami, FL 33135, United States of America",Miami-Dade Transit,bus_stop,SW 1st St & SW 18th Av,-80.2244976,25.7717998
Northwest 7th Street & Northwest 15th Avenue,Miami,33128,Northwest 7th Street,"Northwest 7th Street, Miami, FL 33128, United States of America",Miami-Dade Transit,bus_stop,NW 7th St & NW 15th Av,-80.2197265,25.7801651
Southwest 7th Street & Southwest 19th Avenue,Miami,33135,Southwest 7th Street,"Southwest 7th Street, Miami, FL 33135, United States of America",Miami-Dade Transit,bus_stop,SW 7th St & SW 19th Av,-80.2263201,25.7665049
West Flagler Street & Northwest 18th Avenue,Miami,33135,West Flagler Street,"West Flagler Street, Miami, FL 33135, United States of America",Miami-Dade Transit,bus_stop,W Flagler St & NW 18th Av,-80.2250082,25.7728064
Southwest 1st Street & Southwest 18th Court,Miami,33135,Southwest 1st Street,"Southwest 1st Street, Miami, FL 33135, United States of America",Miami-Dade Transit,bus_stop,SW 1st St & SW 18th Ct,-80.2258337,25.771597
Northwest 7th Street & Northwest 16th Avenue,Miami,33125,Northwest 7th Street,"Northwest 7th Street, Miami, FL 33125, United States of America",Miami-Dade Transit,bus_stop,NW 7th St & NW 16th Av,-80.221431,25.780111
Northwest 7th Street & Northwest 16th Avenue,Miami,33125,Northwest 7th Street,"Northwest 7th Street, Miami, FL 33125, United States of America",Miami-Dade Transit,bus_stop,NW 7th St & NW 16th Av,-80.2216999,25.7799236
Northwest 7th Street & Northwest 17th Court,Miami,33125,Northwest 7th Street,"Northwest 7th Street, Miami, FL 33125, United States of America",Miami-Dade Transit,bus_stop,NW 7th St & NW 17th Ct,-80.2231738,25.7800548
Northwest 7th Street & Northwest 17th Court,Miami,33125,Northwest 7th Street,"Northwest 7th Street, Miami, FL 33125, United States of America",Miami-Dade Transit,bus_stop,NW 7th St & NW 17th Ct,-80.2234312,25.7798689
